{"type": "FeatureCollection", "features": [{"type": "Feature", "properties": {"route_short_name": "A,C,E", "route_color": "2850AD"}, "geometry": {"type": "MultiLineString", "coordinates": [[[-73.755405, 40.603995], [-73.755898, 40.603729], [-73.756172, 40.603582], [-73.756581, 40.603349], [-73.756865, 40.603186], [-73.757142, 40.603036], [-73.758375, 40.602381], [-73.75883, 40.602124], [-73.75926, 40.601859], [-73.759665, 40.601587], [-73.760046, 40.601306], [-73.760401, 40.601017], [-73.760732, 40.600721], [-73.761038, 40.600416], [-73.761353, 40.600066], [-73.762051, 40.599257], [-73.762319, 40.598994], [-73.762564, 40.598795], [-73.762838, 40.598607], [-73.768175, 40.595398], [-73.770405, 40.594053], [-73.770679, 40.593898], [-73.770966, 40.593758], [-73.771268, 40.593634], [-73.771583, 40.593525], [-73.771913, 40.593432], [-73.772256, 40.593355], [-73.772613, 40.593293], [-73.776013, 40.592943], [-73.783159, 40.592222], [-73.7835, 40.592192], [-73.783836, 40.592169], [-73.78417, 40.592155], [-73.784502, 40.592148], [-73.78483, 40.592149], [-73.785156, 40.592158], [-73.785479, 40.592176], [-73.787287, 40.59232], [-73.787596, 40.592341], [-73.78792, 40.592358], [-73.788259, 40.592369], [-73.788732, 40.592373], [-73.78913, 40.592366], [-73.789498, 40.592352], [-73.789836, 40.592332], [-73.790144, 40.592305], [-73.790551, 40.592253], [-73.79089, 40.592186], [-73.794251, 40.591336], [-73.794559, 40.591268], [-73.794875, 40.591206], [-73.795199, 40.591149], [-73.796924, 40.590927], [-73.802733, 40.590214], [-73.803118, 40.590182], [-73.803526, 40.590182], [-73.803955, 40.590213], [-73.804254, 40.590251], [-73.804562, 40.590302], [-73.804877, 40.590367], [-73.806332, 40.590713], [-73.806647, 40.590788], [-73.806945, 40.590876], [-73.807494, 40.591089], [-73.807982, 40.59135], [-73.808409, 40.59166], [-73.808775, 40.592018], [-73.809079, 40.592425], [-73.809322, 40.592881], [-73.815653, 40.607677], [-73.81577, 40.607962], [-73.815896, 40.6083], [-73.81601, 40.608632], [-73.816119, 40.608977], [-73.82842, 40.656136], [-73.828531, 40.656508], [-73.828652, 40.65687], [-73.82878, 40.657222], [-73.828917, 40.657564], [-73.829062, 40.657898], [-73.830301, 40.660476], [-73.834058, 40.668234], [-73.835919, 40.672097], [-73.838715, 40.677879], [-73.838867, 40.678199], [-73.839033, 40.678517], [-73.840071, 40.680272], [-73.840289, 40.680534], [-73.840559, 40.680722], [-73.840882, 40.680836], [-73.841258, 40.680876], [-73.841687, 40.680843], [-73.843853, 40.680429], [-73.844224, 40.680357], [-73.844557, 40.680302], [-73.844906, 40.680259], [-73.845271, 40.680229], [-73.85147, 40.679843], [-73.858992, 40.679371], [-73.860342, 40.679287], [-73.860642, 40.679253], [-73.861871, 40.678935], [-73.862171, 40.678836], [-73.862456, 40.678718], [-73.862725, 40.678583], [-73.86505, 40.677044], [-73.865742, 40.676558], [-73.866018, 40.676392], [-73.866316, 40.676261], [-73.866636, 40.676166], [-73.872106, 40.675377], [-73.88075, 40.67413], [-73.890358, 40.67271], [-73.89383, 40.672196], [-73.89434, 40.67214], [-73.89479, 40.672154], [-73.895184, 40.672236], [-73.895522, 40.672386], [-73.895805, 40.672605], [-73.896032, 40.672891], [-73.896202, 40.673247], [-73.896548, 40.674542], [-73.897088, 40.676653], [-73.897255, 40.677001], [-73.897492, 40.677299], [-73.897799, 40.677549], [-73.898176, 40.677752], [-73.898621, 40.677908], [-73.899135, 40.678017], [-73.899719, 40.678079], [-73.900033, 40.678093], [-73.900444, 40.678112], [-73.900785, 40.678134], [-73.901108, 40.678168], [-73.902619, 40.678361], [-73.902965, 40.678384], [-73.903266, 40.678391], [-73.905316, 40.678334], [-73.907997, 40.678227], [-73.908405, 40.678213], [-73.908805, 40.678207], [-73.909195, 40.678208], [-73.909575, 40.678216], [-73.909946, 40.678231], [-73.911946, 40.67834], [-73.920786, 40.678822], [-73.930729, 40.679364], [-73.940858, 40.679921], [-73.950426, 40.680438], [-73.952338, 40.680543], [-73.952721, 40.68057], [-73.953023, 40.680604], [-73.953339, 40.680651], [-73.953667, 40.68071], [-73.956848, 40.68138], [-73.965838, 40.683263], [-73.96743, 40.683595], [-73.967769, 40.683675], [-73.968107, 40.683781], [-73.968445, 40.683911], [-73.973946, 40.686113], [-73.975438, 40.68672], [-73.975803, 40.686842], [-73.97617, 40.686924], [-73.976543, 40.686966], [-73.978621, 40.686762], [-73.979002, 40.686726], [-73.979363, 40.686718], [-73.979706, 40.686735], [-73.98003, 40.686779], [-73.980336, 40.686851], [-73.980738, 40.686969], [-73.981034, 40.687048], [-73.981883, 40.68735], [-73.982229, 40.68748], [-73.982578, 40.687604], [-73.98293, 40.687723], [-73.983229, 40.68782], [-73.983528, 40.687922], [-73.983827, 40.688029], [-73.985001, 40.688484], [-73.987376, 40.689409], [-73.987672, 40.68961], [-73.987895, 40.689924], [-73.987918, 40.690288], [-73.987803, 40.690594], [-73.987582, 40.690945], [-73.987452, 40.691236], [-73.987387, 40.691539], [-73.987343, 40.692332], [-73.987277, 40.693682], [-73.987252, 40.693988], [-73.987211, 40.694334], [-73.987177, 40.694652], [-73.987036, 40.697395], [-73.98709, 40.697848], [-73.987221, 40.69824], [-73.987429, 40.69857], [-73.987713, 40.69884], [-73.988074, 40.699047], [-73.988511, 40.699194], [-73.989025, 40.699279], [-73.990531, 40.699337], [-73.991305, 40.699368], [-73.991654, 40.699391], [-73.991991, 40.699428], [-73.992316, 40.69948], [-73.99263, 40.699546], [-73.992931, 40.699629], [-73.996206, 40.700539], [-73.996623, 40.700676], [-73.99703, 40.700823], [-73.997422, 40.700978], [-73.9978, 40.701141], [-73.998162, 40.701312], [-73.998509, 40.701491], [-73.998841, 40.701679], [-73.999159, 40.701875], [-73.999461, 40.702079], [-73.999749, 40.702291], [-74.000021, 40.702511], [-74.000279, 40.70274], [-74.000522, 40.702976], [-74.000749, 40.703221], [-74.000966, 40.703473], [-74.004845, 40.708461], [-74.005061, 40.708712], [-74.005325, 40.708941], [-74.005637, 40.709148], [-74.007691, 40.710197], [-74.009737, 40.711226], [-74.009999, 40.711427], [-74.010174, 40.711722], [-74.01015, 40.712048], [-74.010001, 40.712312], [-74.008585, 40.714111], [-74.005494, 40.718039], [-74.005329, 40.71831], [-74.005203, 40.71866], [-74.005164, 40.719022], [-74.00523, 40.720785], [-74.005294, 40.721758], [-74.005302, 40.722078], [-74.005267, 40.722379], [-74.003739, 40.726227], [-74.00272, 40.728583], [-74.002597, 40.728876], [-74.002452, 40.729171], [-74.001552, 40.73082], [-74.001402, 40.73108], [-74.000515, 40.732312], [-73.999777, 40.733324], [-73.999636, 40.733666], [-73.999642, 40.734021], [-73.99975, 40.734314], [-74.002433, 40.738807], [-74.002567, 40.739121], [-74.00259, 40.739434], [-74.002502, 40.739744], [-74.00169, 40.740893], [-73.998041, 40.745906], [-73.993391, 40.752287], [-73.989735, 40.757308], [-73.985984, 40.762456], [-73.985322, 40.763365], [-73.984138, 40.764986], [-73.981736, 40.768296], [-73.97641, 40.775594], [-73.972143, 40.781433], [-73.968916, 40.785868], [-73.964696, 40.791642], [-73.961454, 40.796092], [-73.958161, 40.800603], [-73.954882, 40.805085], [-73.953288, 40.807267], [-73.95311, 40.807519], [-73.952976, 40.807842], [-73.952939, 40.808177], [-73.95303, 40.809638], [-73.953017, 40.809981], [-73.952922, 40.810285], [-73.952343, 40.811109], [-73.952117, 40.81139], [-73.951865, 40.811661], [-73.951645, 40.811871], [-73.950604, 40.812906], [-73.950363, 40.813145], [-73.950141, 40.813416], [-73.949202, 40.814704], [-73.949023, 40.814969], [-73.948875, 40.815254], [-73.947649, 40.817894], [-73.944947, 40.823696], [-73.944791, 40.82398], [-73.944617, 40.824231], [-73.944216, 40.824783], [-73.943403, 40.825903], [-73.943249, 40.826164], [-73.943128, 40.826444], [-73.941514, 40.830518], [-73.940709, 40.832909], [-73.940613, 40.833199], [-73.939915, 40.834797], [-73.939823, 40.835104], [-73.939811, 40.835433], [-73.939892, 40.836013], [-73.940033, 40.83692], [-73.940057, 40.837221], [-73.939881, 40.839251], [-73.939843, 40.839593], [-73.939778, 40.839923], [-73.939561, 40.840719], [-73.93939, 40.841395], [-73.939317, 40.841744], [-73.939277, 40.84205], [-73.939202, 40.842713], [-73.939152, 40.843061], [-73.939086, 40.843384], [-73.938886, 40.844266], [-73.938937, 40.844623], [-73.939076, 40.844892], [-73.939302, 40.845146], [-73.939709, 40.845466], [-73.93994, 40.845707], [-73.94007, 40.845981], [-73.940099, 40.846287], [-73.939704, 40.847391], [-73.937969, 40.851695], [-73.936887, 40.855112], [-73.93676, 40.855444], [-73.936599, 40.85575], [-73.93418, 40.859022], [-73.930852, 40.863314], [-73.93065, 40.863537], [-73.930407, 40.863748], [-73.930123, 40.863946], [-73.928643, 40.864789], [-73.928091, 40.865077], [-73.927798, 40.865232], [-73.927525, 40.86537], [-73.927208, 40.865518], [-73.926885, 40.865652], [-73.926547, 40.865782], [-73.92138, 40.867635], [-73.921056, 40.867747], [-73.920742, 40.867846], [-73.919899, 40.868072]], [[-73.801109, 40.702147], [-73.803388, 40.701633], [-73.803708, 40.701565], [-73.804039, 40.701487], [-73.806654, 40.700823], [-73.807969, 40.700486], [-73.808267, 40.700397], [-73.808556, 40.700292], [-73.808838, 40.700171], [-73.80913, 40.700047], [-73.809429, 40.699939], [-73.809735, 40.699845], [-73.811105, 40.699458], [-73.811402, 40.699398], [-73.811706, 40.699364], [-73.812016, 40.699359], [-73.812331, 40.699384], [-73.81265, 40.699436], [-73.814744, 40.700003], [-73.815124, 40.700177], [-73.815457, 40.700389], [-73.815746, 40.700641], [-73.815991, 40.700935], [-73.816187, 40.701272], [-73.816859, 40.702566], [-73.817765, 40.704526], [-73.817905, 40.704812], [-73.818077, 40.705097], [-73.818247, 40.705361], [-73.819479, 40.707304], [-73.820574, 40.709179], [-73.820832, 40.709619], [-73.821039, 40.709921], [-73.821305, 40.710195], [-73.821634, 40.71044], [-73.822024, 40.710658], [-73.822318, 40.710787], [-73.827083, 40.712617], [-73.827445, 40.712749], [-73.827788, 40.712884], [-73.828113, 40.713023], [-73.831008, 40.714441], [-73.831353, 40.714639], [-73.831691, 40.714844], [-73.832023, 40.715053], [-73.832349, 40.715267], [-73.832669, 40.715485], [-73.832983, 40.715708], [-73.833291, 40.715936], [-73.833689, 40.716237], [-73.83395, 40.716425], [-73.834213, 40.716608], [-73.834482, 40.716787], [-73.834756, 40.716961], [-73.835035, 40.71713], [-73.835318, 40.717294], [-73.835607, 40.717453], [-73.837324, 40.718331], [-73.840085, 40.71968], [-73.840432, 40.719857], [-73.840786, 40.720028], [-73.841146, 40.720194], [-73.841421, 40.720314], [-73.844521, 40.721691], [-73.847541, 40.723026], [-73.847975, 40.723253], [-73.848394, 40.723493], [-73.848797, 40.723747], [-73.849184, 40.724013], [-73.849556, 40.724292], [-73.849912, 40.724584], [-73.850252, 40.724889], [-73.850544, 40.725159], [-73.850805, 40.725382], [-73.851083, 40.725596], [-73.851377, 40.7258], [-73.851688, 40.725995], [-73.852015, 40.726181], [-73.852359, 40.726358], [-73.852719, 40.726523], [-73.853091, 40.726688], [-73.853442, 40.726839], [-73.853773, 40.726977], [-73.854085, 40.727103], [-73.854378, 40.727216], [-73.861604, 40.729846], [-73.86471, 40.730985], [-73.865078, 40.731119], [-73.865431, 40.731257], [-73.865768, 40.731397], [-73.866087, 40.731541], [-73.86639, 40.731688], [-73.866676, 40.731838], [-73.866945, 40.731991], [-73.867317, 40.732215], [-73.867707, 40.732429], [-73.867984, 40.732568], [-73.868274, 40.732706], [-73.868579, 40.732842], [-73.868898, 40.732975], [-73.869229, 40.733106], [-73.869554, 40.733218], [-73.869885, 40.733328], [-73.870224, 40.733437], [-73.870571, 40.733544], [-73.870923, 40.733648], [-73.874126, 40.734593], [-73.874686, 40.734775], [-73.875194, 40.734988], [-73.87565, 40.735232], [-73.876054, 40.735507], [-73.876405, 40.735812], [-73.876705, 40.736148], [-73.876951, 40.736514], [-73.877223, 40.737015], [-73.878602, 40.739655], [-73.878794, 40.739977], [-73.879004, 40.740261], [-73.879235, 40.740506], [-73.880977, 40.741822], [-73.881247, 40.742001], [-73.881523, 40.742173], [-73.881803, 40.742337], [-73.882114, 40.74251], [-73.882388, 40.742661], [-73.882706, 40.742827], [-73.884523, 40.743718], [-73.884801, 40.743851], [-73.885104, 40.743987], [-73.891338, 40.746644], [-73.898453, 40.749669], [-73.906006, 40.752885], [-73.906786, 40.753221], [-73.908935, 40.754245], [-73.913333, 40.756312], [-73.914295, 40.756762], [-73.914583, 40.756898], [-73.917222, 40.758182], [-73.917638, 40.758356], [-73.918033, 40.758469], [-73.918409, 40.75852], [-73.918765, 40.75851], [-73.919101, 40.758437], [-73.919417, 40.758303], [-73.919713, 40.758107], [-73.92074, 40.756879], [-73.921395, 40.756071], [-73.923728, 40.753072], [-73.923982, 40.752778], [-73.924291, 40.752545], [-73.92456, 40.752411], [-73.924861, 40.752311], [-73.925171, 40.752239], [-73.92548, 40.752179], [-73.925796, 40.752132], [-73.92612, 40.752098], [-73.92645, 40.752078], [-73.928781, 40.752039], [-73.931627, 40.75199], [-73.932184, 40.751957], [-73.932713, 40.75188], [-73.933212, 40.751758], [-73.933682, 40.751591], [-73.934122, 40.75138], [-73.934532, 40.751125], [-73.934913, 40.750826], [-73.936347, 40.749495], [-73.936599, 40.749288], [-73.936897, 40.749114], [-73.937243, 40.748973], [-73.93978, 40.748061], [-73.941563, 40.747421], [-73.941913, 40.747326], [-73.942279, 40.747272], [-73.942663, 40.747259], [-73.943063, 40.747287], [-73.943479, 40.747357], [-73.946, 40.747846], [-73.952344, 40.749075], [-73.952661, 40.749151], [-73.952983, 40.749234], [-73.953305, 40.749328], [-73.953629, 40.74943], [-73.953954, 40.749543], [-73.954279, 40.749664], [-73.954605, 40.749795], [-73.954933, 40.749935], [-73.955261, 40.750085], [-73.95559, 40.750244], [-73.95592, 40.750413], [-73.956251, 40.750591], [-73.956583, 40.750778], [-73.956916, 40.750975], [-73.957251, 40.751182], [-73.961669, 40.754285], [-73.961923, 40.754456], [-73.962194, 40.754617], [-73.962481, 40.754767], [-73.969055, 40.757552], [-73.975224, 40.760167], [-73.976697, 40.760789], [-73.980212, 40.762259], [-73.981637, 40.762862], [-73.983698, 40.763731], [-73.984092, 40.763825], [-73.984453, 40.763836], [-73.984778, 40.763763], [-73.985068, 40.763606], [-73.985322, 40.763365], [-73.985984, 40.762456], [-73.989735, 40.757308], [-73.993391, 40.752287], [-73.998041, 40.745906], [-74.00169, 40.740893], [-74.002363, 40.739974], [-74.002535, 40.739666], [-74.002594, 40.739356], [-74.002544, 40.739043], [-73.999792, 40.734389], [-73.99966, 40.734094], [-73.999626, 40.733736], [-73.999736, 40.733391], [-74.000477, 40.732362], [-74.001312, 40.731216], [-74.001482, 40.730948], [-74.002395, 40.729279], [-74.002552, 40.72897], [-74.002689, 40.728661], [-74.003739, 40.726227], [-74.005189, 40.722659], [-74.005278, 40.72232], [-74.005304, 40.722016], [-74.005229, 40.720824], [-74.005163, 40.719096], [-74.005183, 40.71873], [-74.005293, 40.718377], [-74.005444, 40.718105], [-74.009781, 40.712582]]]}}, {"type": "Feature", "properties": {"route_short_name": "B,D,F,FX,M", "route_color": "FF6319"}, "geometry": {"type": "MultiLineString", "coordinates": [[[-73.783817, 40.712646], [-73.785267, 40.712305], [-73.785588, 40.712236], [-73.785919, 40.712177], [-73.786257, 40.71213], [-73.78799, 40.711994], [-73.788407, 40.71198], [-73.788815, 40.71195], [-73.789209, 40.711904], [-73.789591, 40.711841], [-73.789961, 40.711762], [-73.790317, 40.711666], [-73.790661, 40.711555], [-73.793604, 40.71047], [-73.794749, 40.710034], [-73.795042, 40.709929], [-73.795329, 40.709836], [-73.803326, 40.707564], [-73.810708, 40.70546], [-73.814414, 40.704413], [-73.814754, 40.704327], [-73.815084, 40.704267], [-73.815403, 40.704229], [-73.815712, 40.704214], [-73.816296, 40.704252], [-73.816836, 40.704382], [-73.817333, 40.704603], [-73.817786, 40.704916], [-73.818196, 40.705321], [-73.81838, 40.70556], [-73.819479, 40.707304], [-73.820574, 40.709179], [-73.820832, 40.709619], [-73.821039, 40.709921], [-73.821305, 40.710195], [-73.821634, 40.71044], [-73.822024, 40.710658], [-73.822318, 40.710787], [-73.827083, 40.712617], [-73.827445, 40.712749], [-73.827788, 40.712884], [-73.828113, 40.713023], [-73.831008, 40.714441], [-73.831353, 40.714639], [-73.831691, 40.714844], [-73.832023, 40.715053], [-73.832349, 40.715267], [-73.832669, 40.715485], [-73.832983, 40.715708], [-73.833291, 40.715936], [-73.833689, 40.716237], [-73.83395, 40.716425], [-73.834213, 40.716608], [-73.834482, 40.716787], [-73.834756, 40.716961], [-73.835035, 40.71713], [-73.835318, 40.717294], [-73.835607, 40.717453], [-73.837324, 40.718331], [-73.840085, 40.71968], [-73.840432, 40.719857], [-73.840786, 40.720028], [-73.841146, 40.720194], [-73.841421, 40.720314], [-73.844521, 40.721691], [-73.847541, 40.723026], [-73.847975, 40.723253], [-73.848394, 40.723493], [-73.848797, 40.723747], [-73.849184, 40.724013], [-73.849556, 40.724292], [-73.849912, 40.724584], [-73.850252, 40.724889], [-73.850544, 40.725159], [-73.850805, 40.725382], [-73.851083, 40.725596], [-73.851377, 40.7258], [-73.851688, 40.725995], [-73.852015, 40.726181], [-73.852359, 40.726358], [-73.852719, 40.726523], [-73.853091, 40.726688], [-73.853442, 40.726839], [-73.853773, 40.726977], [-73.854085, 40.727103], [-73.854378, 40.727216], [-73.861604, 40.729846], [-73.86471, 40.730985], [-73.865078, 40.731119], [-73.865431, 40.731257], [-73.865768, 40.731397], [-73.866087, 40.731541], [-73.86639, 40.731688], [-73.866676, 40.731838], [-73.866945, 40.731991], [-73.867317, 40.732215], [-73.867707, 40.732429], [-73.867984, 40.732568], [-73.868274, 40.732706], [-73.868579, 40.732842], [-73.868898, 40.732975], [-73.869229, 40.733106], [-73.869554, 40.733218], [-73.869885, 40.733328], [-73.870224, 40.733437], [-73.870571, 40.733544], [-73.870923, 40.733648], [-73.874126, 40.734593], [-73.874686, 40.734775], [-73.875194, 40.734988], [-73.87565, 40.735232], [-73.876054, 40.735507], [-73.876405, 40.735812], [-73.876705, 40.736148], [-73.876951, 40.736514], [-73.877223, 40.737015], [-73.878602, 40.739655], [-73.878794, 40.739977], [-73.879004, 40.740261], [-73.879235, 40.740506], [-73.880977, 40.741822], [-73.881247, 40.742001], [-73.881523, 40.742173], [-73.881803, 40.742337], [-73.882114, 40.74251], [-73.882388, 40.742661], [-73.882706, 40.742827], [-73.884523, 40.743718], [-73.884801, 40.743851], [-73.885104, 40.743987], [-73.891338, 40.746644], [-73.898453, 40.749669], [-73.906006, 40.752885], [-73.906786, 40.753221], [-73.908935, 40.754245], [-73.913333, 40.756312], [-73.914295, 40.756762], [-73.914583, 40.756898], [-73.917222, 40.758182], [-73.917638, 40.758356], [-73.918033, 40.758469], [-73.918409, 40.75852], [-73.918765, 40.75851], [-73.919101, 40.758437], [-73.919417, 40.758303], [-73.919713, 40.758107], [-73.92074, 40.756879], [-73.921395, 40.756071], [-73.923728, 40.753072], [-73.923982, 40.752778], [-73.924291, 40.752545], [-73.92456, 40.752411], [-73.924861, 40.752311], [-73.925171, 40.752239], [-73.92548, 40.752179], [-73.925796, 40.752132], [-73.92612, 40.752098], [-73.92645, 40.752078], [-73.928781, 40.752039], [-73.931627, 40.75199], [-73.932184, 40.751957], [-73.932713, 40.75188], [-73.933212, 40.751758], [-73.933682, 40.751591], [-73.934122, 40.75138], [-73.934532, 40.751125], [-73.934821, 40.750941], [-73.935111, 40.750806], [-73.9354, 40.75072], [-73.935832, 40.750684], [-73.936262, 40.750759], [-73.936548, 40.750871], [-73.940988, 40.753234], [-73.941265, 40.753386], [-73.941544, 40.753535], [-73.941824, 40.753681], [-73.942836, 40.754203], [-73.947109, 40.756392], [-73.947419, 40.756553], [-73.947691, 40.756682], [-73.95326, 40.759145], [-73.957154, 40.760847], [-73.957431, 40.76097], [-73.957707, 40.761088], [-73.964558, 40.763973], [-73.966113, 40.764629], [-73.97133, 40.766827], [-73.971695, 40.766975], [-73.97205, 40.7671], [-73.972394, 40.767201], [-73.972727, 40.767276], [-73.973049, 40.767327], [-73.973359, 40.767352], [-73.973945, 40.767329], [-73.974487, 40.767205], [-73.974983, 40.766982], [-73.975434, 40.76666], [-73.97745, 40.763972], [-73.979701, 40.760893], [-73.981329, 40.758663], [-73.984569, 40.754222], [-73.987823, 40.749719], [-73.992821, 40.742878], [-73.996209, 40.738228], [-73.999777, 40.733324], [-74.000477, 40.732362], [-74.001312, 40.731216], [-74.001482, 40.730948], [-74.002395, 40.729279], [-74.002515, 40.728918], [-74.002526, 40.728601], [-74.002371, 40.728247], [-74.002126, 40.728032], [-73.998114, 40.726047], [-73.997756, 40.725876], [-73.997471, 40.725751], [-73.997172, 40.725631], [-73.996858, 40.725513], [-73.996204, 40.725297], [-73.99255, 40.724185], [-73.989938, 40.723402], [-73.987919, 40.722792], [-73.987511, 40.722645], [-73.987188, 40.722466], [-73.98695, 40.722255], [-73.986752, 40.721881], [-73.986746, 40.721436], [-73.986848, 40.721101], [-73.988114, 40.718611], [-73.989854, 40.715245], [-73.990008, 40.71493], [-73.990112, 40.714625], [-73.990171, 40.71433], [-73.99019, 40.714014], [-73.990171, 40.713665], [-73.990141, 40.713334], [-73.990101, 40.71302], [-73.989866, 40.711503], [-73.989767, 40.711079], [-73.989652, 40.710675], [-73.989518, 40.710288], [-73.989365, 40.709918], [-73.989193, 40.709566], [-73.989002, 40.709232], [-73.988791, 40.708915], [-73.987867, 40.707683], [-73.987524, 40.70722], [-73.987234, 40.706752], [-73.986997, 40.70628], [-73.986813, 40.705803], [-73.986682, 40.705322], [-73.986604, 40.704836], [-73.986579, 40.704345], [-73.986772, 40.701398], [-73.986885, 40.699743], [-73.987036, 40.697395], [-73.98717, 40.694832], [-73.987187, 40.694519], [-73.987226, 40.694204], [-73.987262, 40.693884], [-73.987343, 40.692346], [-73.987379, 40.691695], [-73.987412, 40.691386], [-73.987509, 40.691089], [-73.987738, 40.690701], [-73.988937, 40.688929], [-73.990862, 40.686145], [-73.993701, 40.681949], [-73.993901, 40.681655], [-73.994101, 40.681371], [-73.994302, 40.681099], [-73.995048, 40.680303], [-73.995289, 40.680009], [-73.995532, 40.679676], [-73.995775, 40.679303], [-73.995937, 40.679032], [-73.9961, 40.678744], [-73.996262, 40.678436], [-73.997223, 40.676438], [-73.997359, 40.676122], [-73.997447, 40.675805], [-73.997459, 40.675472], [-73.997396, 40.675111], [-73.99725, 40.674778], [-73.997022, 40.674474], [-73.996745, 40.67421], [-73.996462, 40.673964], [-73.996176, 40.673738], [-73.995915, 40.673547], [-73.995634, 40.673355], [-73.995331, 40.673167], [-73.993354, 40.672023], [-73.993087, 40.671877], [-73.989779, 40.670272], [-73.98847, 40.669639], [-73.988144, 40.669506], [-73.987817, 40.669391], [-73.987489, 40.669295], [-73.987162, 40.669218], [-73.986836, 40.66916], [-73.986537, 40.66912], [-73.986238, 40.669061], [-73.985942, 40.668982], [-73.985647, 40.668884], [-73.985354, 40.668766], [-73.983365, 40.66776], [-73.983081, 40.667615], [-73.982809, 40.667482], [-73.980305, 40.666271], [-73.977941, 40.66513], [-73.977544, 40.664893], [-73.977245, 40.664645], [-73.977043, 40.664383], [-73.976921, 40.663966], [-73.977015, 40.663519], [-73.977197, 40.663205], [-73.979493, 40.660365], [-73.979696, 40.660092], [-73.979881, 40.659822], [-73.980051, 40.659557], [-73.980204, 40.659296], [-73.980388, 40.658921], [-73.980446, 40.658583], [-73.980386, 40.658266], [-73.980208, 40.65797], [-73.979912, 40.657695], [-73.979648, 40.657523], [-73.977414, 40.656215], [-73.977108, 40.656013], [-73.976858, 40.655781], [-73.976664, 40.655517], [-73.976525, 40.655222], [-73.976441, 40.654895], [-73.975951, 40.652292], [-73.975894, 40.651943], [-73.97585, 40.651619], [-73.975815, 40.651317], [-73.975785, 40.65095], [-73.975789, 40.650546], [-73.975851, 40.650106], [-73.975964, 40.649708], [-73.976129, 40.649352], [-73.976345, 40.649038], [-73.976613, 40.648766], [-73.976933, 40.648536], [-73.977306, 40.648349], [-73.97866, 40.647813], [-73.979052, 40.647593], [-73.979376, 40.647342], [-73.979632, 40.64706], [-73.979818, 40.646746], [-73.979936, 40.6464], [-73.979986, 40.646022], [-73.979966, 40.645613], [-73.979678, 40.644041], [-73.979314, 40.64212], [-73.979259, 40.641806], [-73.979213, 40.641463], [-73.979147, 40.640819], [-73.979112, 40.640503], [-73.979056, 40.640186], [-73.978761, 40.638643], [-73.978693, 40.638304], [-73.978619, 40.637997], [-73.978528, 40.637671], [-73.978445, 40.637361], [-73.978351, 40.636991], [-73.978277, 40.636669], [-73.978172, 40.636119], [-73.976971, 40.629755], [-73.976127, 40.625322], [-73.975264, 40.620769], [-73.974197, 40.61514], [-73.973022, 40.608944], [-73.972299, 40.605143], [-73.972251, 40.604827], [-73.972226, 40.604457], [-73.972239, 40.604117], [-73.972361, 40.603217], [-73.973357, 40.596063], [-73.974067, 40.591023], [-73.974118, 40.59067], [-73.974168, 40.590302], [-73.974216, 40.589918], [-73.974259, 40.589533], [-73.974286, 40.589208], [-73.974307, 40.588908], [-73.974325, 40.588569], [-73.97463, 40.583299], [-73.974625, 40.582994], [-73.97454, 40.582254], [-73.974514, 40.581946], [-73.974574, 40.581011], [-73.974707, 40.57908], [-73.974719, 40.578755], [-73.974531, 40.577091], [-73.974576, 40.576752], [-73.974803, 40.576512], [-73.975939, 40.576127], [-73.97662, 40.575912], [-73.976917, 40.575837], [-73.97731, 40.575774], [-73.9777, 40.575752], [-73.978088, 40.575771], [-73.980094, 40.576039], [-73.980425, 40.576106], [-73.980762, 40.576235], [-73.981018, 40.576463], [-73.981233, 40.577422]], [[-73.878855, 40.874811], [-73.883029, 40.876699], [-73.883553, 40.876881], [-73.88403, 40.876972], [-73.884463, 40.876972], [-73.884851, 40.876881], [-73.885193, 40.876698], [-73.885491, 40.876425], [-73.885744, 40.87606], [-73.886653, 40.874027], [-73.886802, 40.87374], [-73.886964, 40.873479], [-73.888279, 40.871801], [-73.888546, 40.871539], [-73.888854, 40.871292], [-73.889113, 40.871118], [-73.889396, 40.870952], [-73.890297, 40.870411], [-73.890649, 40.870188], [-73.890995, 40.869931], [-73.891336, 40.869639], [-73.89156, 40.869424], [-73.891781, 40.869195], [-73.891998, 40.868949], [-73.893509, 40.866978], [-73.894164, 40.866103], [-73.896631, 40.863108], [-73.896827, 40.86286], [-73.897017, 40.862591], [-73.897202, 40.862303], [-73.897749, 40.861296], [-73.898523, 40.859873], [-73.898695, 40.859544], [-73.898842, 40.85928], [-73.898997, 40.859014], [-73.900741, 40.856093], [-73.90094, 40.855786], [-73.901148, 40.855488], [-73.901365, 40.855203], [-73.905227, 40.85041], [-73.906311, 40.849058], [-73.906534, 40.848791], [-73.906787, 40.848518], [-73.907072, 40.848236], [-73.907389, 40.847947], [-73.907739, 40.847649], [-73.908121, 40.847343], [-73.908535, 40.847028], [-73.910136, 40.8459], [-73.910404, 40.845695], [-73.91065, 40.845478], [-73.910875, 40.845249], [-73.91108, 40.845006], [-73.911266, 40.844751], [-73.91143, 40.844482], [-73.911575, 40.844201], [-73.91285, 40.840469], [-73.912997, 40.840115], [-73.913143, 40.839793], [-73.913289, 40.839503], [-73.91346, 40.839202], [-73.913656, 40.838887], [-73.913879, 40.838567], [-73.914129, 40.838242], [-73.914405, 40.837912], [-73.91844, 40.833771], [-73.918744, 40.833436], [-73.919043, 40.833085], [-73.919334, 40.832715], [-73.919614, 40.832326], [-73.919886, 40.831918], [-73.920148, 40.831491], [-73.9204, 40.831044], [-73.921612, 40.828524], [-73.921823, 40.828106], [-73.922092, 40.827779], [-73.922419, 40.827543], [-73.922802, 40.827397], [-73.923244, 40.827342], [-73.923742, 40.827378], [-73.924298, 40.827504], [-73.924598, 40.827601], [-73.925651, 40.827905], [-73.92604, 40.828025], [-73.926417, 40.828154], [-73.926783, 40.828292], [-73.927138, 40.82844], [-73.927482, 40.828599], [-73.929053, 40.829514], [-73.929375, 40.829664], [-73.929738, 40.829785], [-73.930142, 40.829878], [-73.930586, 40.829945], [-73.930905, 40.829975], [-73.936658, 40.830093], [-73.938209, 40.830135], [-73.938524, 40.830132], [-73.938839, 40.830123], [-73.939156, 40.830108], [-73.939489, 40.830069], [-73.939797, 40.830007], [-73.940211, 40.829871], [-73.940567, 40.829685], [-73.940866, 40.829448], [-73.942289, 40.827318], [-73.942468, 40.827073], [-73.943403, 40.825903], [-73.944148, 40.824882], [-73.944591, 40.824264], [-73.944767, 40.824018], [-73.944926, 40.823739], [-73.947649, 40.817894], [-73.948857, 40.815297], [-73.949, 40.815009], [-73.949174, 40.814741], [-73.950112, 40.813459], [-73.950298, 40.813219], [-73.950533, 40.812971], [-73.951586, 40.811923], [-73.951811, 40.811714], [-73.952068, 40.811445], [-73.9523, 40.811167], [-73.952842, 40.810422], [-73.95298, 40.810138], [-73.953033, 40.809815], [-73.952941, 40.808245], [-73.952961, 40.807908], [-73.953075, 40.807583], [-73.953288, 40.807267], [-73.954882, 40.805085], [-73.958161, 40.800603], [-73.961454, 40.796092], [-73.964696, 40.791642], [-73.968916, 40.785868], [-73.972143, 40.781433], [-73.97641, 40.775594], [-73.981736, 40.768296], [-73.984138, 40.764986], [-73.984265, 40.764684], [-73.984266, 40.764321], [-73.984077, 40.764003], [-73.983809, 40.763794], [-73.981663, 40.762874], [-73.980212, 40.762259], [-73.979842, 40.762047], [-73.979607, 40.761805], [-73.9795, 40.761434], [-73.979576, 40.76112], [-73.981329, 40.758663], [-73.984569, 40.754222], [-73.987823, 40.749719], [-73.992821, 40.742878], [-73.996209, 40.738228], [-73.999777, 40.733324], [-74.000477, 40.732362], [-74.001312, 40.731216], [-74.001482, 40.730948], [-74.002395, 40.729279], [-74.002515, 40.728918], [-74.002526, 40.728601], [-74.002371, 40.728247], [-74.002126, 40.728032], [-73.998114, 40.726047], [-73.997756, 40.725876], [-73.997471, 40.725751], [-73.997172, 40.725631], [-73.996858, 40.725513], [-73.996204, 40.725297], [-73.99255, 40.724185], [-73.992196, 40.724013], [-73.991935, 40.7238], [-73.991767, 40.723546], [-73.991691, 40.723253], [-73.991709, 40.722918], [-73.991861, 40.72208], [-73.991967, 40.72177], [-73.993753, 40.718267], [-73.994714, 40.716401], [-73.994849, 40.716087], [-73.994916, 40.715779], [-73.994915, 40.715478], [-73.994847, 40.715184], [-73.994713, 40.714897], [-73.985242, 40.697839], [-73.983934, 40.695138], [-73.983428, 40.693829], [-73.982304, 40.691559], [-73.981824, 40.690635], [-73.981205, 40.689405], [-73.981042, 40.689127], [-73.980798, 40.688902], [-73.980474, 40.68873], [-73.978805, 40.688068], [-73.978547, 40.687894], [-73.978357, 40.68764], [-73.97798, 40.685237], [-73.978026, 40.684939], [-73.978169, 40.684641], [-73.97881, 40.683666], [-73.98311, 40.677316], [-73.983623, 40.676552], [-73.98382, 40.676259], [-73.984016, 40.675997], [-73.988302, 40.670847], [-73.992403, 40.66593], [-73.992612, 40.665689], [-73.992838, 40.665448], [-73.998091, 40.660397], [-74.003549, 40.655144], [-74.005194, 40.653563], [-74.005356, 40.6533], [-74.005364, 40.652966], [-74.005152, 40.652741], [-73.999495, 40.649349], [-73.998985, 40.649102], [-73.994324, 40.646292], [-73.993237, 40.645636], [-73.992987, 40.64541], [-73.992816, 40.645105], [-73.992832, 40.644798], [-73.993035, 40.644487], [-73.993928, 40.64367], [-73.994138, 40.643433], [-73.994257, 40.643119], [-73.994304, 40.640914], [-73.99432, 40.640167], [-73.99434, 40.639847], [-73.994373, 40.63952], [-73.994791, 40.63626], [-73.995292, 40.632328], [-73.995341, 40.632018], [-73.995403, 40.631721], [-73.996895, 40.626472], [-73.998864, 40.619589], [-74.00061, 40.613501], [-74.001762, 40.609472], [-74.001831, 40.609144], [-74.001736, 40.607954], [-74.001634, 40.60709], [-74.001518, 40.60678], [-74.00131, 40.606508], [-74.001077, 40.606317], [-73.998168, 40.604556], [-73.993728, 40.601875], [-73.986829, 40.597704], [-73.985672, 40.597], [-73.985433, 40.596814], [-73.985251, 40.596555], [-73.983765, 40.588841], [-73.983459, 40.587245], [-73.983283, 40.586958], [-73.983004, 40.586751], [-73.98262, 40.586543], [-73.982334, 40.586349], [-73.98205, 40.586094], [-73.981837, 40.585862], [-73.981625, 40.585595], [-73.981289, 40.585098], [-73.981109, 40.584801], [-73.980968, 40.5845], [-73.980836, 40.583929], [-73.980805, 40.583621], [-73.980912, 40.582485], [-73.980964, 40.582154], [-73.981036, 40.581827], [-73.981127, 40.581506], [-73.981364, 40.580914], [-73.981453, 40.580609], [-73.981373, 40.579126], [-73.981376, 40.578816], [-73.981415, 40.578518], [-73.981233, 40.577422]], [[-73.889601, 40.711396], [-73.889743, 40.711079], [-73.889864, 40.710763], [-73.88994, 40.710472], [-73.890083, 40.7099], [-73.890208, 40.709594], [-73.892109, 40.707479], [-73.892373, 40.707254], [-73.89267, 40.707067], [-73.893001, 40.706919], [-73.895877, 40.706186], [-73.903077, 40.704423], [-73.906656, 40.703548], [-73.906956, 40.703443], [-73.907228, 40.703255], [-73.90774, 40.702762], [-73.910743, 40.699825], [-73.911027, 40.699634], [-73.911313, 40.699542], [-73.912385, 40.69943], [-73.919711, 40.698664], [-73.927397, 40.697857], [-73.933022, 40.697229], [-73.933321, 40.697143], [-73.933808, 40.696684], [-73.934106, 40.696544], [-73.934471, 40.696575], [-73.935657, 40.697207], [-73.941126, 40.70026], [-73.941937, 40.700727], [-73.942219, 40.700898], [-73.942497, 40.701075], [-73.94277, 40.701254], [-73.943051, 40.701425], [-73.947408, 40.703869], [-73.951411, 40.706102], [-73.951721, 40.706258], [-73.952036, 40.706389], [-73.953431, 40.70687], [-73.957757, 40.708359], [-73.959184, 40.70885], [-73.959454, 40.708992], [-73.960708, 40.710006], [-73.960979, 40.71017], [-73.978898, 40.715626], [-73.984387, 40.717289], [-73.984689, 40.717385], [-73.984997, 40.717497], [-73.985293, 40.717615], [-73.985588, 40.717728], [-73.985878, 40.717827], [-73.987437, 40.718315]]]}}, {"type": "Feature", "properties": {"route_short_name": "G", "route_color": "6CBE45"}, "geometry": {"type": "LineString", "coordinates": [[-73.943832, 40.746554], [-73.947934, 40.744914], [-73.94828, 40.744766], [-73.948632, 40.744608], [-73.94899, 40.744438], [-73.949354, 40.744256], [-73.949724, 40.744065], [-73.95331, 40.742194], [-73.953724, 40.741958], [-73.954093, 40.741701], [-73.954415, 40.741418], [-73.95469, 40.741111], [-73.954918, 40.740778], [-73.955098, 40.74042], [-73.955231, 40.740037], [-73.955415, 40.738556], [-73.955445, 40.738237], [-73.955454, 40.737918], [-73.955445, 40.737598], [-73.955415, 40.737279], [-73.955369, 40.736961], [-73.954449, 40.731352], [-73.954385, 40.730967], [-73.954326, 40.73064], [-73.954254, 40.730325], [-73.954169, 40.730019], [-73.954073, 40.729724], [-73.953964, 40.729439], [-73.953779, 40.729031], [-73.951277, 40.724635], [-73.950036, 40.722448], [-73.949934, 40.722118], [-73.949929, 40.721794], [-73.95002, 40.721473], [-73.950207, 40.721157], [-73.95049, 40.720844], [-73.951877, 40.719427], [-73.952058, 40.719176], [-73.952221, 40.718834], [-73.952296, 40.718481], [-73.952286, 40.718117], [-73.951418, 40.712792], [-73.950308, 40.706092], [-73.950246, 40.705725], [-73.950207, 40.705397], [-73.950193, 40.705043], [-73.950286, 40.701092], [-73.950278, 40.700771], [-73.950247, 40.700455], [-73.949046, 40.694568], [-73.948756, 40.693113], [-73.948696, 40.692812], [-73.948627, 40.692511], [-73.94844, 40.691698], [-73.948399, 40.691374], [-73.948468, 40.690947], [-73.948695, 40.690593], [-73.948934, 40.690397], [-73.949242, 40.690234], [-73.949621, 40.690103], [-73.953522, 40.689627], [-73.96007, 40.688873], [-73.966839, 40.688089], [-73.975375, 40.687119], [-73.976828, 40.686971], [-73.978621, 40.686762], [-73.979002, 40.686726], [-73.979363, 40.686718], [-73.979706, 40.686735], [-73.98003, 40.686779], [-73.980336, 40.686851], [-73.980738, 40.686969], [-73.981034, 40.687048], [-73.981883, 40.68735], [-73.982229, 40.68748], [-73.982578, 40.687604], [-73.98293, 40.687723], [-73.983229, 40.68782], [-73.983528, 40.687922], [-73.983827, 40.688029], [-73.985001, 40.688484], [-73.987376, 40.689409], [-73.987757, 40.689488], [-73.988105, 40.68948], [-73.988418, 40.689384], [-73.988696, 40.689201], [-73.988937, 40.688929], [-73.990862, 40.686145], [-73.993701, 40.681949], [-73.993901, 40.681655], [-73.994101, 40.681371], [-73.994302, 40.681099], [-73.995048, 40.680303], [-73.995289, 40.680009], [-73.995532, 40.679676], [-73.995775, 40.679303], [-73.995937, 40.679032], [-73.9961, 40.678744], [-73.996262, 40.678436], [-73.997223, 40.676438], [-73.997359, 40.676122], [-73.997447, 40.675805], [-73.997459, 40.675472], [-73.997396, 40.675111], [-73.99725, 40.674778], [-73.997022, 40.674474], [-73.996745, 40.67421], [-73.996462, 40.673964], [-73.996176, 40.673738], [-73.995915, 40.673547], [-73.995634, 40.673355], [-73.995331, 40.673167], [-73.993354, 40.672023], [-73.993087, 40.671877], [-73.989779, 40.670272], [-73.98847, 40.669639], [-73.988144, 40.669506], [-73.987817, 40.669391], [-73.987489, 40.669295], [-73.987162, 40.669218], [-73.986836, 40.66916], [-73.986537, 40.66912], [-73.986238, 40.669061], [-73.985942, 40.668982], [-73.985647, 40.668884], [-73.985354, 40.668766], [-73.983365, 40.66776], [-73.983081, 40.667615], [-73.982809, 40.667482], [-73.980305, 40.666271], [-73.977941, 40.66513], [-73.977544, 40.664893], [-73.977245, 40.664645], [-73.977043, 40.664383], [-73.976921, 40.663966], [-73.977015, 40.663519], [-73.977197, 40.663205], [-73.979493, 40.660365], [-73.979696, 40.660092], [-73.979881, 40.659822], [-73.980051, 40.659557], [-73.980204, 40.659296], [-73.980388, 40.658921], [-73.980446, 40.658583], [-73.980386, 40.658266], [-73.980208, 40.65797], [-73.979912, 40.657695], [-73.979648, 40.657523], [-73.977414, 40.656215], [-73.977108, 40.656013], [-73.976858, 40.655781], [-73.976664, 40.655517], [-73.976525, 40.655222], [-73.976441, 40.654895], [-73.975951, 40.652292], [-73.975894, 40.651943], [-73.97585, 40.651619], [-73.975815, 40.651317], [-73.975785, 40.65095], [-73.975789, 40.650546], [-73.975851, 40.650106], [-73.975964, 40.649708], [-73.976129, 40.649352], [-73.976345, 40.649038], [-73.976613, 40.648766], [-73.976933, 40.648536], [-73.977306, 40.648349], [-73.97866, 40.647813], [-73.979052, 40.647593], [-73.979376, 40.647342], [-73.979632, 40.64706], [-73.979818, 40.646746], [-73.979936, 40.6464], [-73.979986, 40.646022], [-73.979966, 40.645613], [-73.979678, 40.644041]]}}, {"type": "Feature", "properties": {"route_short_name": "J,Z", "route_color": "996633"}, "geometry": {"type": "LineString", "coordinates": [[-73.801109, 40.702147], [-73.803388, 40.701633], [-73.803708, 40.701565], [-73.804039, 40.701487], [-73.806654, 40.700823], [-73.807969, 40.700486], [-73.808267, 40.700397], [-73.808556, 40.700292], [-73.808838, 40.700171], [-73.80913, 40.700047], [-73.809429, 40.699939], [-73.809735, 40.699845], [-73.811105, 40.699458], [-73.813427, 40.698794], [-73.813939, 40.698661], [-73.814447, 40.698561], [-73.814951, 40.698494], [-73.815451, 40.698461], [-73.815947, 40.69846], [-73.816439, 40.698492], [-73.816926, 40.698558], [-73.817409, 40.698656], [-73.817888, 40.698788], [-73.818362, 40.698953], [-73.818832, 40.699151], [-73.819298, 40.699382], [-73.81976, 40.699646], [-73.820218, 40.699943], [-73.820667, 40.700273], [-73.821368, 40.700828], [-73.821691, 40.70104], [-73.822028, 40.701208], [-73.822377, 40.701332], [-73.822739, 40.701412], [-73.823113, 40.701448], [-73.823501, 40.701439], [-73.823901, 40.701387], [-73.825086, 40.701081], [-73.825377, 40.701003], [-73.825677, 40.700934], [-73.825988, 40.700873], [-73.828294, 40.700492], [-73.829627, 40.700278], [-73.829972, 40.700211], [-73.83029, 40.700145], [-73.831794, 40.699771], [-73.832102, 40.699674], [-73.832419, 40.699552], [-73.832747, 40.699404], [-73.835503, 40.697906], [-73.835803, 40.69774], [-73.836084, 40.697577], [-73.836345, 40.697418], [-73.838203, 40.696163], [-73.838468, 40.696005], [-73.838743, 40.695862], [-73.839029, 40.695736], [-73.839325, 40.695625], [-73.839631, 40.69553], [-73.839948, 40.695451], [-73.840275, 40.695388], [-73.840587, 40.695345], [-73.841004, 40.695297], [-73.841398, 40.695258], [-73.841767, 40.69523], [-73.842112, 40.69521], [-73.84433, 40.695178], [-73.845102, 40.69517], [-73.845433, 40.695157], [-73.845741, 40.695133], [-73.846094, 40.695089], [-73.850124, 40.69431], [-73.850485, 40.694227], [-73.850865, 40.69412], [-73.851162, 40.694026], [-73.851471, 40.693919], [-73.853777, 40.693067], [-73.854117, 40.692958], [-73.85447, 40.692868], [-73.854836, 40.692799], [-73.855215, 40.69275], [-73.855607, 40.692721], [-73.858862, 40.692537], [-73.859168, 40.692517], [-73.859474, 40.692493], [-73.85978, 40.692461], [-73.86197, 40.692174], [-73.862311, 40.692125], [-73.86265, 40.692071], [-73.8657, 40.691556], [-73.866044, 40.691495], [-73.866365, 40.691444], [-73.867139, 40.691324], [-73.868193, 40.691163], [-73.868532, 40.6911], [-73.868871, 40.691026], [-73.871142, 40.690449], [-73.871475, 40.690359], [-73.871772, 40.690264], [-73.87255, 40.689941], [-73.873578, 40.689501], [-73.873825, 40.689315], [-73.873922, 40.689022], [-73.87333, 40.687236], [-73.873222, 40.686921], [-73.87312, 40.686608], [-73.872326, 40.684107], [-73.872338, 40.683796], [-73.872544, 40.683574], [-73.873785, 40.683194], [-73.879022, 40.681705], [-73.879361, 40.68161], [-73.8797, 40.681511], [-73.880039, 40.68141], [-73.884639, 40.679947], [-73.889574, 40.678375], [-73.88988, 40.678296], [-73.891688, 40.678024], [-73.898654, 40.676992], [-73.899559, 40.67686], [-73.899903, 40.676861], [-73.900189, 40.676954], [-73.904512, 40.679498], [-73.910456, 40.682893], [-73.916559, 40.68637], [-73.92227, 40.68963], [-73.928814, 40.693342], [-73.934679, 40.696654], [-73.935657, 40.697207], [-73.941126, 40.70026], [-73.941937, 40.700727], [-73.942219, 40.700898], [-73.942497, 40.701075], [-73.94277, 40.701254], [-73.943051, 40.701425], [-73.947408, 40.703869], [-73.951411, 40.706102], [-73.951721, 40.706258], [-73.952036, 40.706389], [-73.953431, 40.70687], [-73.957757, 40.708359], [-73.959184, 40.70885], [-73.959454, 40.708992], [-73.960708, 40.710006], [-73.960979, 40.71017], [-73.978898, 40.715626], [-73.984387, 40.717289], [-73.984689, 40.717385], [-73.984997, 40.717497], [-73.985293, 40.717615], [-73.985588, 40.717728], [-73.985878, 40.717827], [-73.987437, 40.718315], [-73.990892, 40.719363], [-73.993915, 40.72028], [-73.996655, 40.721196], [-73.997001, 40.721238], [-73.997294, 40.721153], [-73.997534, 40.720941], [-73.99894, 40.719273], [-73.999137, 40.719036], [-73.999892, 40.718092], [-74.00032, 40.71757], [-74.000528, 40.717306], [-74.002475, 40.714666], [-74.002653, 40.714421], [-74.002832, 40.714141], [-74.003401, 40.713243], [-74.003802, 40.712622], [-74.004031, 40.712412], [-74.00433, 40.712298], [-74.004682, 40.712242], [-74.004997, 40.712177], [-74.00528, 40.712073], [-74.007108, 40.710784], [-74.007361, 40.710581], [-74.007582, 40.710374], [-74.007822, 40.710143], [-74.00872, 40.709218], [-74.00895, 40.708993], [-74.009209, 40.708768], [-74.009443, 40.708538], [-74.01036, 40.707526], [-74.010548, 40.70729], [-74.011056, 40.706476]]}}, {"type": "Feature", "properties": {"route_short_name": "L", "route_color": "A7A9AC"}, "geometry": {"type": "LineString", "coordinates": [[-73.90185, 40.646654], [-73.899485, 40.650573], [-73.898278, 40.652568], [-73.898128, 40.652889], [-73.898033, 40.653217], [-73.897992, 40.653553], [-73.898006, 40.653899], [-73.898074, 40.654252], [-73.899232, 40.658733], [-73.900571, 40.664038], [-73.901975, 40.669367], [-73.90231, 40.670703], [-73.902415, 40.671005], [-73.902552, 40.671292], [-73.903274, 40.674099], [-73.903311, 40.674431], [-73.903097, 40.675345], [-73.902906, 40.676067], [-73.90281, 40.677009], [-73.902811, 40.677343], [-73.902871, 40.677658], [-73.90324, 40.678856], [-73.903846, 40.680764], [-73.903998, 40.68107], [-73.904178, 40.681358], [-73.904388, 40.681627], [-73.904605, 40.681858], [-73.904821, 40.682115], [-73.905005, 40.682393], [-73.905199, 40.682734], [-73.905377, 40.683067], [-73.905534, 40.683429], [-73.905651, 40.683801], [-73.905727, 40.684182], [-73.905762, 40.684573], [-73.905647, 40.685684], [-73.905574, 40.686067], [-73.905488, 40.686422], [-73.905391, 40.68675], [-73.90528, 40.687049], [-73.905091, 40.687446], [-73.904873, 40.687779], [-73.904046, 40.688764], [-73.903233, 40.689721], [-73.903023, 40.68996], [-73.902784, 40.690214], [-73.902572, 40.690427], [-73.902326, 40.690671], [-73.902048, 40.690955], [-73.90178, 40.691238], [-73.901521, 40.691521], [-73.901272, 40.691802], [-73.901083, 40.692066], [-73.900921, 40.692397], [-73.900833, 40.692712], [-73.900819, 40.693012], [-73.900937, 40.693431], [-73.901108, 40.693692], [-73.901353, 40.693937], [-73.902304, 40.694559], [-73.902591, 40.694745], [-73.902879, 40.694918], [-73.904084, 40.695602], [-73.911586, 40.699814], [-73.914513, 40.701432], [-73.914803, 40.701592], [-73.915093, 40.701756], [-73.915383, 40.701924], [-73.915672, 40.702096], [-73.915962, 40.702272], [-73.918425, 40.703811], [-73.922913, 40.706607], [-73.923782, 40.70715], [-73.924059, 40.707287], [-73.924343, 40.707385], [-73.924731, 40.707453], [-73.92513, 40.707449], [-73.933147, 40.706152], [-73.933513, 40.706094], [-73.933848, 40.706053], [-73.934203, 40.706033], [-73.934576, 40.706036], [-73.934926, 40.706041], [-73.935281, 40.706023], [-73.93564, 40.705981], [-73.937953, 40.705534], [-73.938322, 40.705488], [-73.938648, 40.705495], [-73.939053, 40.705604], [-73.939358, 40.705833], [-73.939562, 40.706181], [-73.939643, 40.70648], [-73.93985, 40.707739], [-73.940407, 40.711087], [-73.940474, 40.71141], [-73.940593, 40.711749], [-73.941905, 40.714383], [-73.942131, 40.714632], [-73.94245, 40.714705], [-73.944053, 40.714565], [-73.94855, 40.714136], [-73.9489, 40.714103], [-73.949248, 40.714079], [-73.949593, 40.714064], [-73.949935, 40.714058], [-73.950275, 40.714063], [-73.951068, 40.714065], [-73.951373, 40.714083], [-73.951734, 40.714168], [-73.952072, 40.714323], [-73.956872, 40.717304], [-73.972376, 40.726957], [-73.97266, 40.727122], [-73.972994, 40.727293], [-73.973298, 40.727435], [-73.981628, 40.730953], [-73.986122, 40.732849], [-73.99073, 40.734789], [-73.996786, 40.737335], [-74.002578, 40.739777]]}}, {"type": "Feature", "properties": {"route_short_name": "N,Q,R,W", "route_color": "FCCC0A"}, "geometry": {"type": "MultiLineString", "coordinates": [[[-73.844521, 40.721691], [-73.847541, 40.723026], [-73.847975, 40.723253], [-73.848394, 40.723493], [-73.848797, 40.723747], [-73.849184, 40.724013], [-73.849556, 40.724292], [-73.849912, 40.724584], [-73.850252, 40.724889], [-73.850544, 40.725159], [-73.850805, 40.725382], [-73.851083, 40.725596], [-73.851377, 40.7258], [-73.851688, 40.725995], [-73.852015, 40.726181], [-73.852359, 40.726358], [-73.852719, 40.726523], [-73.853091, 40.726688], [-73.853442, 40.726839], [-73.853773, 40.726977], [-73.854085, 40.727103], [-73.854378, 40.727216], [-73.861604, 40.729846], [-73.86471, 40.730985], [-73.865078, 40.731119], [-73.865431, 40.731257], [-73.865768, 40.731397], [-73.866087, 40.731541], [-73.86639, 40.731688], [-73.866676, 40.731838], [-73.866945, 40.731991], [-73.867317, 40.732215], [-73.867707, 40.732429], [-73.867984, 40.732568], [-73.868274, 40.732706], [-73.868579, 40.732842], [-73.868898, 40.732975], [-73.869229, 40.733106], [-73.869554, 40.733218], [-73.869885, 40.733328], [-73.870224, 40.733437], [-73.870571, 40.733544], [-73.870923, 40.733648], [-73.874126, 40.734593], [-73.874686, 40.734775], [-73.875194, 40.734988], [-73.87565, 40.735232], [-73.876054, 40.735507], [-73.876405, 40.735812], [-73.876705, 40.736148], [-73.876951, 40.736514], [-73.877223, 40.737015], [-73.878602, 40.739655], [-73.878794, 40.739977], [-73.879004, 40.740261], [-73.879235, 40.740506], [-73.880977, 40.741822], [-73.881247, 40.742001], [-73.881523, 40.742173], [-73.881803, 40.742337], [-73.882114, 40.74251], [-73.882388, 40.742661], [-73.882706, 40.742827], [-73.884523, 40.743718], [-73.884801, 40.743851], [-73.885104, 40.743987], [-73.891338, 40.746644], [-73.898453, 40.749669], [-73.906006, 40.752885], [-73.906786, 40.753221], [-73.908935, 40.754245], [-73.913333, 40.756312], [-73.914295, 40.756762], [-73.914583, 40.756898], [-73.917222, 40.758182], [-73.917638, 40.758356], [-73.918033, 40.758469], [-73.918409, 40.75852], [-73.918765, 40.75851], [-73.919101, 40.758437], [-73.919417, 40.758303], [-73.919713, 40.758107], [-73.92074, 40.756879], [-73.921395, 40.756071], [-73.923728, 40.753072], [-73.923982, 40.752778], [-73.924291, 40.752545], [-73.92456, 40.752411], [-73.924861, 40.752311], [-73.925171, 40.752239], [-73.92548, 40.752179], [-73.925796, 40.752132], [-73.92612, 40.752098], [-73.92645, 40.752078], [-73.928781, 40.752039], [-73.931627, 40.75199], [-73.932184, 40.751957], [-73.932713, 40.75188], [-73.933212, 40.751758], [-73.933682, 40.751591], [-73.934122, 40.75138], [-73.934532, 40.751125], [-73.934913, 40.750826], [-73.936347, 40.749495], [-73.936599, 40.749288], [-73.936897, 40.749114], [-73.937243, 40.748973], [-73.93978, 40.748061], [-73.940121, 40.747991], [-73.940445, 40.747963], [-73.94075, 40.747977], [-73.941176, 40.748077], [-73.941561, 40.748273], [-73.941909, 40.748566], [-73.942897, 40.749595], [-73.943092, 40.749884], [-73.943172, 40.7502], [-73.943135, 40.751179], [-73.943156, 40.751489], [-73.943294, 40.75186], [-73.94348, 40.752107], [-73.943736, 40.752329], [-73.944152, 40.752553], [-73.946938, 40.753765], [-73.959131, 40.75923], [-73.967258, 40.76266], [-73.972347, 40.764799], [-73.972647, 40.764872], [-73.973347, 40.764811], [-73.973847, 40.764767], [-73.974146, 40.7648], [-73.978276, 40.76654], [-73.978575, 40.766628], [-73.978931, 40.766632], [-73.979239, 40.766507], [-73.979499, 40.766254], [-73.980658, 40.764664], [-73.984139, 40.759901], [-73.985298, 40.75828], [-73.985514, 40.757949], [-73.985712, 40.757599], [-73.985893, 40.757229], [-73.986056, 40.756839], [-73.986201, 40.75643], [-73.986754, 40.754672], [-73.987281, 40.752982], [-73.987375, 40.752671], [-73.987457, 40.75236], [-73.987526, 40.752049], [-73.98795, 40.749567], [-73.988691, 40.745494], [-73.989083, 40.743402], [-73.989138, 40.743075], [-73.98918, 40.742757], [-73.989344, 40.741303], [-73.989455, 40.740538], [-73.989512, 40.740195], [-73.989578, 40.739894], [-73.990037, 40.738136], [-73.990111, 40.737839], [-73.990186, 40.737519], [-73.990568, 40.735736], [-73.991358, 40.73209], [-73.99146, 40.731779], [-73.991649, 40.731485], [-73.992629, 40.730328], [-73.997702, 40.724329], [-74.001429, 40.71993], [-74.001592, 40.71965], [-74.001601, 40.719334], [-74.001393, 40.719055], [-74.00046, 40.718383], [-74.001775, 40.719527], [-74.006242, 40.714236], [-74.006978, 40.713282], [-74.007447, 40.712722], [-74.007677, 40.712516], [-74.008353, 40.711676], [-74.008659, 40.711525], [-74.009011, 40.711507], [-74.009327, 40.711589], [-74.009672, 40.711723], [-74.010032, 40.71177], [-74.010323, 40.711669], [-74.011029, 40.710668], [-74.013153, 40.707477], [-74.013342, 40.70722], [-74.013539, 40.706992], [-74.013894, 40.706611], [-74.014053, 40.706297], [-74.013958, 40.705946], [-74.013614, 40.705514], [-74.013423, 40.705236], [-74.013331, 40.704946], [-74.013284, 40.704578], [-74.013227, 40.704194], [-74.013171, 40.703865], [-74.012994, 40.703087], [-74.012658, 40.701808], [-74.012532, 40.701476], [-74.012346, 40.701177], [-74.012097, 40.700913], [-74.011786, 40.700682], [-74.011412, 40.700483], [-74.01011, 40.699942], [-73.999159, 40.696176], [-73.998764, 40.696046], [-73.998384, 40.695926], [-73.998018, 40.695816], [-73.997667, 40.695716], [-73.997331, 40.695626], [-73.991777, 40.6941], [-73.990788, 40.693825], [-73.99043, 40.693696], [-73.990134, 40.693506], [-73.989902, 40.693257], [-73.989723, 40.692937], [-73.98954, 40.69269], [-73.989288, 40.6925], [-73.98897, 40.692367], [-73.988583, 40.69229], [-73.985942, 40.69218], [-73.983329, 40.692082], [-73.982946, 40.692036], [-73.982642, 40.691922], [-73.982376, 40.691684], [-73.981824, 40.690635], [-73.981205, 40.689405], [-73.981042, 40.689127], [-73.980798, 40.688902], [-73.980474, 40.68873], [-73.978805, 40.688068], [-73.978547, 40.687894], [-73.978357, 40.68764], [-73.97798, 40.685237], [-73.978026, 40.684939], [-73.978169, 40.684641], [-73.97881, 40.683666], [-73.98311, 40.677316], [-73.983623, 40.676552], [-73.98382, 40.676259], [-73.984016, 40.675997], [-73.988302, 40.670847], [-73.992403, 40.66593], [-73.992612, 40.665689], [-73.992838, 40.665448], [-73.998091, 40.660397], [-74.003549, 40.655144], [-74.005194, 40.653563], [-74.005356, 40.6533], [-74.005364, 40.652966], [-74.005152, 40.652741], [-73.999495, 40.649349], [-73.998985, 40.649102], [-73.994324, 40.646292], [-73.993237, 40.645636], [-73.992987, 40.64541], [-73.992816, 40.645105], [-73.992832, 40.644798], [-73.993035, 40.644487], [-73.993928, 40.64367], [-73.994138, 40.643433], [-73.994257, 40.643119], [-73.994304, 40.640914], [-73.99432, 40.640167], [-73.99434, 40.639847], [-73.994373, 40.63952], [-73.994791, 40.63626], [-73.995292, 40.632328], [-73.995341, 40.632018], [-73.995403, 40.631721], [-73.996895, 40.626472], [-73.998864, 40.619589], [-74.00061, 40.613501], [-74.001762, 40.609472], [-74.001831, 40.609144], [-74.001736, 40.607954], [-74.001634, 40.60709], [-74.001518, 40.60678], [-74.00131, 40.606508], [-74.001077, 40.606317], [-73.998168, 40.604556], [-73.993728, 40.601875]], [[-73.947656, 40.783471], [-73.951745, 40.777873], [-73.952225, 40.777215], [-73.95838, 40.76878], [-73.958883, 40.76809], [-73.961424, 40.76462], [-73.961755, 40.764296], [-73.962112, 40.764046], [-73.962496, 40.763869], [-73.962907, 40.763765], [-73.963345, 40.763733], [-73.96381, 40.763774], [-73.964301, 40.763888], [-73.966113, 40.764629], [-73.97133, 40.766827], [-73.971634, 40.766973], [-73.971906, 40.767121], [-73.974272, 40.768546], [-73.974609, 40.768708], [-73.974934, 40.768843], [-73.975249, 40.768949], [-73.975553, 40.769028], [-73.976128, 40.769101], [-73.97666, 40.769062], [-73.977148, 40.768911], [-73.977592, 40.768649], [-73.977993, 40.768274], [-73.979499, 40.766254], [-73.980658, 40.764664], [-73.984139, 40.759901], [-73.985298, 40.75828], [-73.985514, 40.757949], [-73.985712, 40.757599], [-73.985893, 40.757229], [-73.986056, 40.756839], [-73.986201, 40.75643], [-73.986754, 40.754672], [-73.987281, 40.752982], [-73.987375, 40.752671], [-73.987457, 40.75236], [-73.987526, 40.752049], [-73.98795, 40.749567], [-73.988691, 40.745494], [-73.989083, 40.743402], [-73.989138, 40.743075], [-73.98918, 40.742757], [-73.989344, 40.741303], [-73.989455, 40.740538], [-73.989512, 40.740195], [-73.989578, 40.739894], [-73.990037, 40.738136], [-73.990111, 40.737839], [-73.990186, 40.737519], [-73.990568, 40.735736], [-73.991358, 40.73209], [-73.99146, 40.731779], [-73.991649, 40.731485], [-73.992629, 40.730328], [-73.997702, 40.724329], [-74.001429, 40.71993], [-74.001592, 40.71965], [-74.001601, 40.719334], [-74.001393, 40.719055], [-74.00046, 40.718383], [-73.999149, 40.717433], [-73.998852, 40.71725], [-73.998528, 40.717091], [-73.998177, 40.716956], [-73.996676, 40.71644], [-73.996388, 40.716322], [-73.996109, 40.716148], [-73.995495, 40.71554], [-73.995268, 40.715285], [-73.995085, 40.715017], [-73.985484, 40.69777], [-73.984126, 40.695079], [-73.983428, 40.693829], [-73.982304, 40.691559], [-73.981824, 40.690635], [-73.981205, 40.689405], [-73.981042, 40.689127], [-73.980798, 40.688902], [-73.980474, 40.68873], [-73.978805, 40.688068], [-73.977928, 40.687703], [-73.977624, 40.687541], [-73.977437, 40.687273], [-73.97689, 40.68446], [-73.976708, 40.683433], [-73.976628, 40.683097], [-73.97649, 40.682769], [-73.972367, 40.67705], [-73.962927, 40.663876], [-73.962771, 40.663619], [-73.962601, 40.663269], [-73.962475, 40.662913], [-73.962392, 40.662551], [-73.962246, 40.661614], [-73.96215, 40.66101], [-73.962026, 40.66054], [-73.961956, 40.660237], [-73.96141, 40.6569], [-73.961374, 40.656594], [-73.961365, 40.656281], [-73.961382, 40.655959], [-73.961425, 40.65563], [-73.961495, 40.655292], [-73.961938, 40.653888], [-73.962074, 40.653472], [-73.96221, 40.653046], [-73.962347, 40.65261], [-73.962486, 40.652165], [-73.962626, 40.651709], [-73.962767, 40.651244], [-73.96291, 40.650768], [-73.964421, 40.645866], [-73.964502, 40.645506], [-73.96455, 40.645144], [-73.964564, 40.644777], [-73.964544, 40.644407], [-73.964492, 40.644031], [-73.963891, 40.640927], [-73.962793, 40.635082], [-73.961973, 40.630739], [-73.96192, 40.630437], [-73.961854, 40.630132], [-73.961639, 40.62927], [-73.961563, 40.628955], [-73.961483, 40.628599], [-73.96142, 40.628287], [-73.960803, 40.625039], [-73.959399, 40.617618], [-73.957986, 40.610171], [-73.957922, 40.609748], [-73.957734, 40.60867], [-73.95764, 40.608159], [-73.957548, 40.607789], [-73.955929, 40.5993], [-73.955161, 40.595246], [-73.954319, 40.590785], [-73.954106, 40.589295], [-73.954065, 40.588921], [-73.954052, 40.58861], [-73.954056, 40.588288], [-73.954096, 40.587758], [-73.954131, 40.587443], [-73.95415, 40.587088], [-73.954153, 40.586783], [-73.954181, 40.586443], [-73.954254, 40.586103], [-73.954373, 40.585763], [-73.954536, 40.585423], [-73.959575, 40.578316], [-73.959811, 40.578064], [-73.960085, 40.577917], [-73.961376, 40.577621], [-73.967059, 40.576418], [-73.96744, 40.576358], [-73.967824, 40.576322], [-73.96821, 40.576308], [-73.968513, 40.576312], [-73.973141, 40.576731], [-73.973498, 40.576744], [-73.973837, 40.576726], [-73.974159, 40.576676], [-73.974984, 40.576429], [-73.975939, 40.576127], [-73.97662, 40.575912], [-73.976917, 40.575837], [-73.97731, 40.575774], [-73.9777, 40.575752], [-73.978088, 40.575771], [-73.980094, 40.576039], [-73.980425, 40.576106], [-73.980762, 40.576235], [-73.981018, 40.576463], [-73.981233, 40.577422]], [[-73.998091, 40.660397], [-74.003549, 40.655144], [-74.005194, 40.653563], [-74.010006, 40.648939], [-74.014034, 40.645069], [-74.017881, 40.641362], [-74.020704, 40.63865], [-74.022278, 40.63714], [-74.022507, 40.636889], [-74.022696, 40.636597], [-74.023377, 40.634967], [-74.02551, 40.629742], [-74.028398, 40.622687], [-74.030876, 40.616622]]]}}, {"type": "Feature", "properties": {"route_short_name": "S", "route_color": "808183"}, "geometry": {"type": "MultiLineString", "coordinates": [[[-73.815925, 40.608382], [-73.815808, 40.60806], [-73.815696, 40.607781], [-73.809421, 40.593127], [-73.80929, 40.592668], [-73.809239, 40.592211], [-73.809269, 40.591756], [-73.809379, 40.591304], [-73.80957, 40.590854], [-73.809841, 40.590407], [-73.810192, 40.589962], [-73.810395, 40.589741], [-73.810697, 40.589474], [-73.811021, 40.58923], [-73.811371, 40.589008], [-73.811744, 40.588807], [-73.812143, 40.588627], [-73.813641, 40.588034], [-73.820558, 40.585307], [-73.82133, 40.585014], [-73.821686, 40.584888], [-73.822066, 40.584762], [-73.822366, 40.584667], [-73.82268, 40.584572], [-73.827559, 40.583209], [-73.82873, 40.582874], [-73.829024, 40.582786], [-73.829336, 40.582681], [-73.829817, 40.582509], [-73.830119, 40.58241], [-73.830425, 40.582317], [-73.833245, 40.581529], [-73.833684, 40.581426], [-73.83399, 40.581351], [-73.835592, 40.580903]], [[-73.955827, 40.680596], [-73.955849, 40.679989], [-73.955888, 40.679654], [-73.957624, 40.674772], [-73.959245, 40.670343], [-73.96114, 40.665142], [-73.961509, 40.664126], [-73.961791, 40.663485], [-73.961935, 40.66321], [-73.9621, 40.662811], [-73.962209, 40.662431], [-73.962262, 40.662068], [-73.962258, 40.661724], [-73.962246, 40.661614]], [[-73.979189, 40.752769], [-73.985728, 40.755522], [-73.985987, 40.755678], [-73.98619, 40.755908], [-73.986229, 40.755983]]]}}, {"type": "Feature", "properties": {"route_short_name": "1,2,3", "route_color": "EE352E"}, "geometry": {"type": "LineString", "coordinates": [[-73.85062, 40.903125], [-73.85136, 40.902261], [-73.851628, 40.901895], [-73.852026, 40.901261], [-73.85234, 40.900798], [-73.852766, 40.90026], [-73.853045, 40.899929], [-73.853333, 40.899595], [-73.854376, 40.898379], [-73.854784, 40.8979], [-73.855124, 40.897451], [-73.857473, 40.893193], [-73.860341, 40.888022], [-73.862633, 40.883895], [-73.863846, 40.881715], [-73.866256, 40.87785], [-73.866787, 40.876988], [-73.866928, 40.876693], [-73.866997, 40.876367], [-73.867025, 40.875827], [-73.867164, 40.871356], [-73.867352, 40.865462], [-73.867615, 40.857192], [-73.867834, 40.850249], [-73.867873, 40.849929], [-73.867986, 40.849629], [-73.868153, 40.849338], [-73.868457, 40.848828], [-73.869194, 40.847565], [-73.869431, 40.847153], [-73.869609, 40.846768], [-73.869952, 40.845968], [-73.870143, 40.845525], [-73.870472, 40.844767], [-73.870717, 40.844293], [-73.871028, 40.84391], [-73.871389, 40.843567], [-73.87179, 40.84325], [-73.873488, 40.841894], [-73.874109, 40.841402], [-73.87443, 40.84121], [-73.874736, 40.841121], [-73.876313, 40.840847], [-73.876624, 40.840801], [-73.87701, 40.840786], [-73.87733, 40.840817], [-73.877644, 40.840895], [-73.878027, 40.841049], [-73.878423, 40.841212], [-73.878829, 40.841273], [-73.879175, 40.841151], [-73.879734, 40.840583], [-73.880049, 40.840295], [-73.880498, 40.840057], [-73.88085, 40.839913], [-73.881149, 40.839802], [-73.881759, 40.839642], [-73.882191, 40.839591], [-73.882597, 40.839567], [-73.88303, 40.839546], [-73.883573, 40.839484], [-73.883891, 40.839419], [-73.884441, 40.839252], [-73.884886, 40.839063], [-73.887183, 40.837713], [-73.887544, 40.837463], [-73.8878, 40.837218], [-73.888068, 40.83683], [-73.89134, 40.831358], [-73.891611, 40.830888], [-73.891793, 40.830395], [-73.891865, 40.829993], [-73.891924, 40.825522], [-73.891922, 40.825069], [-73.892021, 40.824739], [-73.892265, 40.824494], [-73.892771, 40.824223], [-73.893064, 40.824073], [-73.896736, 40.822181], [-73.90177, 40.819585], [-73.902687, 40.819113], [-73.903268, 40.818818], [-73.90421, 40.8184], [-73.905114, 40.818004], [-73.905518, 40.817813], [-73.905946, 40.817578], [-73.907807, 40.81649], [-73.908375, 40.816174], [-73.908682, 40.816055], [-73.909111, 40.815963], [-73.909808, 40.815926], [-73.910364, 40.815931], [-73.910726, 40.815949], [-73.911136, 40.815974], [-73.911842, 40.816033], [-73.912669, 40.816113], [-73.913328, 40.81618], [-73.913796, 40.816213], [-73.914233, 40.816171], [-73.914728, 40.816005], [-73.915203, 40.81582], [-73.91568, 40.815699], [-73.916277, 40.815702], [-73.916675, 40.815782], [-73.917757, 40.816109], [-73.926718, 40.81841], [-73.927782, 40.818685], [-73.928935, 40.818984], [-73.929282, 40.819064], [-73.929628, 40.819134], [-73.929973, 40.819194], [-73.930316, 40.819243], [-73.930657, 40.819283], [-73.930996, 40.819311], [-73.931334, 40.81933], [-73.93526, 40.819299], [-73.935651, 40.819289], [-73.936023, 40.819242], [-73.936378, 40.819161], [-73.936715, 40.819046], [-73.937034, 40.818896], [-73.937336, 40.818712], [-73.93762, 40.818493], [-73.94077, 40.814229], [-73.945495, 40.807754], [-73.949625, 40.802098], [-73.951822, 40.799075], [-73.952174, 40.798665], [-73.95247, 40.798469], [-73.953008, 40.798251], [-73.95331, 40.798177], [-73.953676, 40.798111], [-73.956739, 40.797535], [-73.960573, 40.796904], [-73.960984, 40.796872], [-73.961388, 40.796934], [-73.961824, 40.797093], [-73.966582, 40.799099], [-73.96696, 40.799215], [-73.967321, 40.799272], [-73.967664, 40.799268], [-73.967988, 40.799204], [-73.968295, 40.79908], [-73.968582, 40.798896], [-73.968852, 40.798651], [-73.972265, 40.794005], [-73.975942, 40.788957], [-73.976218, 40.788644], [-73.977107, 40.787601], [-73.977656, 40.786953], [-73.979917, 40.783934], [-73.980371, 40.783313], [-73.980572, 40.78297], [-73.980748, 40.782622], [-73.980924, 40.782155], [-73.981314, 40.780996], [-73.981757, 40.779426], [-73.981906, 40.778822], [-73.98197, 40.778453], [-73.982058, 40.777869], [-73.982091, 40.777496], [-73.982212, 40.774166], [-73.982209, 40.77344], [-73.982098, 40.769222], [-73.982088, 40.768794], [-73.982012, 40.768454], [-73.981781, 40.767895], [-73.981697, 40.767561], [-73.981702, 40.767172], [-73.981755, 40.766808], [-73.98191, 40.765808], [-73.981977, 40.765461], [-73.982063, 40.765125], [-73.982156, 40.764821], [-73.98232, 40.764386], [-73.982464, 40.764029], [-73.982626, 40.763714], [-73.982793, 40.763412], [-73.983038, 40.76298], [-73.983358, 40.762486], [-73.983849, 40.761728], [-73.984294, 40.76104], [-73.984577, 40.760592], [-73.984725, 40.760283], [-73.984959, 40.759714], [-73.985063, 40.759405], [-73.98533, 40.758631], [-73.985512, 40.758156], [-73.985638, 40.75788], [-73.986009, 40.757342], [-73.987495, 40.75529], [-73.991057, 40.750373], [-73.993365, 40.747215], [-73.995657, 40.744081], [-73.997871, 40.74104], [-74.000201, 40.737826], [-74.000973, 40.736761], [-74.001229, 40.736358], [-74.001452, 40.735973], [-74.002906, 40.733422], [-74.004682, 40.730321], [-74.004935, 40.729881], [-74.005112, 40.729532], [-74.005221, 40.729169], [-74.005367, 40.728251], [-74.006277, 40.722854], [-74.006886, 40.719318], [-74.007031, 40.718563], [-74.007117, 40.718262], [-74.009266, 40.715478], [-74.010188, 40.714303], [-74.010347, 40.714013], [-74.010213, 40.713699], [-74.008811, 40.713051], [-74.007962, 40.712663], [-74.007667, 40.712519], [-74.007371, 40.712239], [-74.007035, 40.711788], [-74.005949, 40.710726], [-74.005761, 40.710437], [-74.005869, 40.710148], [-74.006571, 40.709416], [-74.008172, 40.707811], [-74.008592, 40.707382], [-74.0091, 40.706821], [-74.009488, 40.706375], [-74.009801, 40.705922], [-74.009938, 40.705567], [-74.009987, 40.705177], [-74.009737, 40.70477], [-74.009504, 40.704571], [-74.007127, 40.702464], [-74.006508, 40.701924], [-74.006073, 40.701603], [-74.005659, 40.701345], [-74.005185, 40.701068], [-74.00471, 40.700828], [-74.00426, 40.700635], [-74.003652, 40.700423], [-74.00291, 40.700174], [-73.993086, 40.697466], [-73.992018, 40.69718], [-73.991667, 40.697046], [-73.991423, 40.69687], [-73.991225, 40.696579], [-73.990565, 40.694474], [-73.990454, 40.694162], [-73.989998, 40.693219], [-73.989735, 40.692699], [-73.989522, 40.692427], [-73.989278, 40.692246], [-73.985065, 40.690545], [-73.981616, 40.689164], [-73.98128, 40.689027], [-73.981001, 40.688856], [-73.98074, 40.688593], [-73.980492, 40.688246], [-73.978708, 40.685781], [-73.977666, 40.684359], [-73.975098, 40.680829], [-73.971046, 40.675235], [-73.969806, 40.673679], [-73.969546, 40.673414], [-73.969259, 40.673208], [-73.968947, 40.673056], [-73.968631, 40.672955], [-73.964375, 40.671987], [-73.958131, 40.670682], [-73.955823, 40.670208], [-73.955258, 40.670118], [-73.954713, 40.670083], [-73.951706, 40.669922], [-73.950466, 40.669847], [-73.942161, 40.669399], [-73.932942, 40.668897], [-73.926593, 40.668554], [-73.926171, 40.668508], [-73.925796, 40.668415], [-73.925486, 40.668213], [-73.92516, 40.667882], [-73.924915, 40.667552], [-73.924503, 40.666613], [-73.924356, 40.666335], [-73.92261, 40.664717], [-73.919094, 40.661573], [-73.918789, 40.661345], [-73.918438, 40.661222], [-73.918036, 40.661201], [-73.917633, 40.661257], [-73.916327, 40.661453], [-73.908946, 40.662549], [-73.902447, 40.663515], [-73.894895, 40.664635], [-73.889395, 40.665449], [-73.884079, 40.666235]]}}, {"type": "Feature", "properties": {"route_short_name": "4,5,6,6X", "route_color": "00933C"}, "geometry": {"type": "MultiLineString", "coordinates": [[[-73.884079, 40.666235], [-73.889395, 40.665449], [-73.894895, 40.664635], [-73.902447, 40.663515], [-73.908946, 40.662549], [-73.916327, 40.661453], [-73.917633, 40.661257], [-73.918036, 40.661201], [-73.918438, 40.661222], [-73.918789, 40.661345], [-73.919094, 40.661573], [-73.92261, 40.664717], [-73.924177, 40.666124], [-73.92441, 40.666422], [-73.924808, 40.667332], [-73.924974, 40.667649], [-73.925356, 40.668087], [-73.925625, 40.668327], [-73.925986, 40.668473], [-73.926368, 40.668536], [-73.932942, 40.668897], [-73.942161, 40.669399], [-73.950466, 40.669847], [-73.951706, 40.669922], [-73.954713, 40.670083], [-73.955258, 40.670118], [-73.955823, 40.670208], [-73.958131, 40.670682], [-73.964375, 40.671987], [-73.968465, 40.672915], [-73.968779, 40.672999], [-73.969088, 40.673121], [-73.969397, 40.673299], [-73.969694, 40.673552], [-73.971046, 40.675235], [-73.975098, 40.680829], [-73.977666, 40.684359], [-73.978708, 40.685781], [-73.980492, 40.688246], [-73.980697, 40.688533], [-73.980941, 40.688808], [-73.981205, 40.688987], [-73.981529, 40.68913], [-73.985065, 40.690545], [-73.989185, 40.692195], [-73.989497, 40.692286], [-73.989832, 40.692354], [-73.990151, 40.692404], [-73.99508, 40.693147], [-73.998992, 40.693837], [-74.00052, 40.694217], [-74.001108, 40.694369], [-74.001884, 40.69456], [-74.002639, 40.694739], [-74.003274, 40.694909], [-74.003986, 40.695132], [-74.004589, 40.695366], [-74.005177, 40.695589], [-74.005764, 40.695813], [-74.006198, 40.696065], [-74.012544, 40.700938], [-74.013973, 40.702003], [-74.014233, 40.702238], [-74.014432, 40.702488], [-74.014615, 40.70289], [-74.014659, 40.703325], [-74.014612, 40.703634], [-74.014503, 40.703957], [-74.014065, 40.704817], [-74.013854, 40.705168], [-74.011862, 40.707557], [-74.009509, 40.710368], [-74.00877, 40.711218], [-74.008505, 40.711393], [-74.00529, 40.712214], [-74.004976, 40.712318], [-74.004697, 40.712498], [-74.004131, 40.713065], [-74.003437, 40.71385], [-74.003263, 40.714102], [-74.003176, 40.714396], [-74.003063, 40.715371], [-74.002963, 40.715687], [-74.000193, 40.718803], [-73.999049, 40.720055], [-73.997276, 40.722125], [-73.997096, 40.722379], [-73.996736, 40.723289], [-73.996579, 40.72356], [-73.994659, 40.725915], [-73.993622, 40.727308], [-73.99174, 40.729514], [-73.991509, 40.729748], [-73.991229, 40.729958], [-73.990941, 40.730144], [-73.990727, 40.730358], [-73.990569, 40.730618], [-73.990468, 40.730923], [-73.989863, 40.733476], [-73.989838, 40.733829], [-73.989857, 40.734145], [-73.989911, 40.73449], [-73.989967, 40.734832], [-73.989944, 40.735133], [-73.986599, 40.739864], [-73.984264, 40.74307], [-73.982076, 40.746081], [-73.978287, 40.751266], [-73.978038, 40.751472], [-73.977756, 40.751575], [-73.976848, 40.751776], [-73.976038, 40.751967], [-73.975721, 40.752072], [-73.975456, 40.752266], [-73.97192, 40.757107], [-73.967967, 40.762526], [-73.96387, 40.768141], [-73.959874, 40.77362], [-73.955589, 40.779492], [-73.95107, 40.785672], [-73.947478, 40.7906], [-73.94425, 40.79502], [-73.941617, 40.798629], [-73.937594, 40.804138], [-73.934685, 40.808118], [-73.934478, 40.808377], [-73.930931, 40.812093], [-73.929849, 40.813224], [-73.929281, 40.813881], [-73.92911, 40.814137], [-73.928949, 40.814456], [-73.928138, 40.816617], [-73.928031, 40.816905], [-73.927911, 40.817191], [-73.927778, 40.817474], [-73.927844, 40.81777], [-73.92811, 40.81793], [-73.928341, 40.818132], [-73.928415, 40.818444], [-73.928189, 40.81869], [-73.927867, 40.818698], [-73.926718, 40.81841], [-73.917757, 40.816109], [-73.916675, 40.815782], [-73.916277, 40.815702], [-73.915934, 40.815684], [-73.915469, 40.81574], [-73.914951, 40.815913], [-73.914448, 40.816109], [-73.91403, 40.816201], [-73.913574, 40.816201], [-73.912669, 40.816113], [-73.911842, 40.816033], [-73.911136, 40.815974], [-73.910726, 40.815949], [-73.910364, 40.815931], [-73.909808, 40.815926], [-73.909395, 40.815936], [-73.908903, 40.816003], [-73.908375, 40.816174], [-73.907807, 40.81649], [-73.905946, 40.817578], [-73.905518, 40.817813], [-73.905114, 40.818004], [-73.90421, 40.8184], [-73.903268, 40.818818], [-73.902687, 40.819113], [-73.90177, 40.819585], [-73.896736, 40.822181], [-73.893064, 40.824073], [-73.892771, 40.824223], [-73.892368, 40.824431], [-73.892091, 40.824649], [-73.891929, 40.824983], [-73.891924, 40.825522], [-73.891875, 40.829842], [-73.89183, 40.830227], [-73.891704, 40.830667], [-73.891469, 40.831153], [-73.888195, 40.836619], [-73.887939, 40.837034], [-73.887734, 40.837288], [-73.887183, 40.837713], [-73.88512, 40.838935], [-73.884651, 40.839165], [-73.884172, 40.839342], [-73.883573, 40.839484], [-73.88303, 40.839546], [-73.882597, 40.839567], [-73.882191, 40.839591], [-73.881759, 40.839642], [-73.881408, 40.839719], [-73.88085, 40.839913], [-73.880498, 40.840057], [-73.880147, 40.840229], [-73.879899, 40.840415], [-73.879283, 40.841051], [-73.878966, 40.841245], [-73.878599, 40.841267], [-73.878219, 40.84113], [-73.877782, 40.840945], [-73.877474, 40.840846], [-73.877172, 40.840795], [-73.876841, 40.840784], [-73.876313, 40.840847], [-73.874736, 40.841121], [-73.87443, 40.84121], [-73.874109, 40.841402], [-73.873488, 40.841894], [-73.87179, 40.84325], [-73.871389, 40.843567], [-73.871028, 40.84391], [-73.870717, 40.844293], [-73.870472, 40.844767], [-73.870143, 40.845525], [-73.869952, 40.845968], [-73.869717, 40.846327], [-73.869399, 40.846768], [-73.869192, 40.847056], [-73.868975, 40.847381], [-73.868713, 40.847683], [-73.86848, 40.847897], [-73.868114, 40.848206], [-73.860495, 40.854364], [-73.857103, 40.857109], [-73.856824, 40.857355], [-73.856545, 40.857624], [-73.856268, 40.857915], [-73.856063, 40.858149], [-73.855359, 40.858985], [-73.846384, 40.869526], [-73.838591, 40.878663], [-73.836547, 40.88107], [-73.834236, 40.883768], [-73.832712, 40.885577], [-73.832289, 40.88611], [-73.83155, 40.887136], [-73.831315, 40.887513], [-73.830834, 40.8883]], [[-73.828121, 40.852462], [-73.829153, 40.851991], [-73.829461, 40.851806], [-73.829703, 40.851571], [-73.829878, 40.851285], [-73.830318, 40.849755], [-73.830426, 40.849448], [-73.830566, 40.849133], [-73.830739, 40.84881], [-73.8311, 40.848205], [-73.831293, 40.847914], [-73.831528, 40.847648], [-73.832569, 40.84681], [-73.836322, 40.843863], [-73.836986, 40.84334], [-73.837244, 40.843157], [-73.841721, 40.840821], [-73.841982, 40.840667], [-73.842952, 40.839892], [-73.847036, 40.836488], [-73.849042, 40.834818], [-73.849291, 40.83464], [-73.849623, 40.83448], [-73.849981, 40.834389], [-73.851222, 40.834255], [-73.860816, 40.833226], [-73.86189, 40.83311], [-73.862212, 40.83306], [-73.867618, 40.831509], [-73.874516, 40.829521], [-73.876695, 40.828894], [-73.877051, 40.828806], [-73.877375, 40.828744], [-73.879159, 40.828584], [-73.881516, 40.828392], [-73.881834, 40.828368], [-73.882147, 40.828349], [-73.884763, 40.828212], [-73.885195, 40.828151], [-73.885552, 40.828027], [-73.885831, 40.827841], [-73.886034, 40.827592], [-73.88616, 40.827281], [-73.886283, 40.826525], [-73.886598, 40.824533], [-73.886651, 40.824206], [-73.886737, 40.823837], [-73.886853, 40.823529], [-73.886995, 40.823242], [-73.887175, 40.822955], [-73.88741, 40.822685], [-73.887697, 40.82243], [-73.889008, 40.821561], [-73.889281, 40.821391], [-73.889584, 40.82124], [-73.890549, 40.820948], [-73.891398, 40.820722], [-73.891691, 40.820605], [-73.891955, 40.820445], [-73.896435, 40.816104], [-73.898882, 40.813738], [-73.899166, 40.813557], [-73.899485, 40.813447], [-73.903781, 40.81224], [-73.904076, 40.812128], [-73.904365, 40.811963], [-73.904622, 40.811796], [-73.90691, 40.810301], [-73.907133, 40.810076], [-73.907327, 40.809654], [-73.907657, 40.808719], [-73.908222, 40.807076], [-73.908366, 40.806773], [-73.908595, 40.806525], [-73.90891, 40.806334], [-73.912116, 40.804879], [-73.91242, 40.804802], [-73.912754, 40.80484], [-73.914042, 40.805368], [-73.91924, 40.807566], [-73.926138, 40.810476], [-73.926526, 40.810637], [-73.926815, 40.810772], [-73.927084, 40.810933], [-73.928587, 40.812079], [-73.928892, 40.812267], [-73.929199, 40.812397], [-73.929507, 40.812471], [-73.929817, 40.812488], [-73.930128, 40.812449], [-73.930441, 40.812353], [-73.930756, 40.812201], [-73.934344, 40.808526], [-73.934546, 40.808296], [-73.93757, 40.804172], [-73.941617, 40.798629], [-73.94425, 40.79502], [-73.947478, 40.7906], [-73.95107, 40.785672], [-73.955589, 40.779492], [-73.959874, 40.77362], [-73.96387, 40.768141], [-73.967967, 40.762526], [-73.97192, 40.757107], [-73.9754, 40.752336], [-73.975634, 40.752119], [-73.975923, 40.751998], [-73.976848, 40.751776], [-73.977756, 40.751575], [-73.978038, 40.751472], [-73.978287, 40.751266], [-73.982076, 40.746081], [-73.984264, 40.74307], [-73.986599, 40.739864], [-73.989845, 40.735409], [-73.989953, 40.735084], [-73.989964, 40.734779], [-73.989894, 40.734401], [-73.989849, 40.734063], [-73.989839, 40.733755], [-73.990453, 40.731008], [-73.990538, 40.73069], [-73.990682, 40.730419], [-73.990882, 40.730194], [-73.991178, 40.729991], [-73.991466, 40.729785], [-73.991705, 40.729555], [-73.993622, 40.727308], [-73.994659, 40.725915], [-73.996498, 40.723654], [-73.99669, 40.72339], [-73.997029, 40.722521], [-73.997174, 40.722249], [-73.999049, 40.720055], [-74.000193, 40.718803], [-74.002859, 40.715827], [-74.00302, 40.715566], [-74.003165, 40.714559], [-74.003209, 40.714244], [-74.003339, 40.713971], [-74.004131, 40.713065]]]}}, {"type": "Feature", "properties": {"route_short_name": "7,7X", "route_color": "B933AD"}, "geometry": {"type": "LineString", "coordinates": [[-73.83003, 40.7596], [-73.830329, 40.759508], [-73.830623, 40.759409], [-73.833515, 40.758407], [-73.833861, 40.758296], [-73.834196, 40.758213], [-73.834494, 40.758152], [-73.836495, 40.75781], [-73.836796, 40.757734], [-73.837103, 40.757635], [-73.841148, 40.756011], [-73.841431, 40.755897], [-73.841735, 40.755786], [-73.845625, 40.754622], [-73.855334, 40.75173], [-73.860401, 40.750225], [-73.860758, 40.750126], [-73.861078, 40.750059], [-73.861428, 40.750004], [-73.8627, 40.749865], [-73.869527, 40.749145], [-73.876613, 40.748408], [-73.883697, 40.747659], [-73.891394, 40.746848], [-73.896403, 40.746325], [-73.902984, 40.74563], [-73.904882, 40.745428], [-73.905213, 40.745404], [-73.905529, 40.745391], [-73.90658, 40.745379], [-73.90691, 40.745365], [-73.907219, 40.745335], [-73.90993, 40.744879], [-73.910238, 40.744816], [-73.910535, 40.744747], [-73.912549, 40.744149], [-73.916102, 40.743061], [-73.916409, 40.742996], [-73.91673, 40.742968], [-73.917065, 40.742977], [-73.918435, 40.743132], [-73.924016, 40.743781], [-73.930997, 40.744587], [-73.932417, 40.744753], [-73.932773, 40.744822], [-73.933091, 40.744931], [-73.933371, 40.745081], [-73.937455, 40.748991], [-73.93772, 40.74922], [-73.938026, 40.74945], [-73.93837, 40.749678], [-73.938753, 40.749906], [-73.93903, 40.750058], [-73.940202, 40.750582], [-73.941087, 40.750963], [-73.941392, 40.751095], [-73.941695, 40.751181], [-73.942055, 40.751204], [-73.942366, 40.751118], [-73.942624, 40.750926], [-73.944599, 40.748656], [-73.944788, 40.748382], [-73.945264, 40.747023], [-73.945579, 40.746077], [-73.945619, 40.745757], [-73.944771, 40.744434], [-73.944654, 40.744116], [-73.944748, 40.743777], [-73.945004, 40.743551], [-73.946315, 40.742996], [-73.946706, 40.742839], [-73.947006, 40.742728], [-73.947293, 40.742634], [-73.947842, 40.74247], [-73.948916, 40.742216], [-73.949849, 40.741997], [-73.950156, 40.741972], [-73.953581, 40.742626], [-73.955815, 40.743061], [-73.956156, 40.743139], [-73.956485, 40.743232], [-73.956802, 40.74334], [-73.976041, 40.751431], [-73.978335, 40.752391], [-73.97865, 40.752484], [-73.980686, 40.753333], [-73.981006, 40.75343], [-73.981963, 40.753821], [-73.98226, 40.75394], [-73.982609, 40.75407], [-73.982936, 40.754179], [-73.983273, 40.754257], [-73.983616, 40.754273], [-73.983914, 40.754217], [-73.984239, 40.754165], [-73.984593, 40.754193], [-73.987691, 40.755477], [-73.996433, 40.759159], [-73.996751, 40.759284], [-73.997057, 40.759382], [-73.997352, 40.759454], [-73.997913, 40.759524], [-73.998432, 40.759492], [-73.998912, 40.759358], [-73.99935, 40.759123], [-73.999748, 40.758787], [-74.000106, 40.758348], [-74.001729, 40.75613], [-74.00191, 40.755882]]}}, {"type": "Feature", "properties": {"route_short_name": "SIR", "route_color": "1D3C78"}, "geometry": {"type": "LineString", "coordinates": [[-74.073643, 40.643748], [-74.073925, 40.643437], [-74.074166, 40.643121], [-74.074366, 40.6428], [-74.074527, 40.642473], [-74.074647, 40.64214], [-74.075301, 40.639459], [-74.075353, 40.639121], [-74.075349, 40.638791], [-74.075291, 40.63847], [-74.075058, 40.63775], [-74.074966, 40.637457], [-74.074879, 40.63714], [-74.07481, 40.636828], [-74.074756, 40.636516], [-74.074579, 40.635364], [-74.07453, 40.63505], [-74.074363, 40.634155], [-74.07431, 40.63376], [-74.074314, 40.633373], [-74.074375, 40.632994], [-74.074494, 40.632623], [-74.074671, 40.632261], [-74.074938, 40.631765], [-74.075067, 40.631484], [-74.075171, 40.631201], [-74.075269, 40.630819], [-74.07532, 40.630432], [-74.075335, 40.630093], [-74.075333, 40.62975], [-74.075315, 40.629382], [-74.075282, 40.62899], [-74.075162, 40.627915], [-74.075052, 40.62707], [-74.075004, 40.626766], [-74.074907, 40.626395], [-74.074777, 40.626063], [-74.074613, 40.625771], [-74.073516, 40.624241], [-74.073125, 40.623711], [-74.072929, 40.623458], [-74.072398, 40.622839], [-74.072166, 40.622559], [-74.071968, 40.622295], [-74.071402, 40.621319], [-74.071212, 40.620885], [-74.071136, 40.620457], [-74.071172, 40.620036], [-74.071266, 40.61973], [-74.071429, 40.619413], [-74.071628, 40.619125], [-74.071829, 40.618883], [-74.072064, 40.618657], [-74.072335, 40.618452], [-74.072642, 40.618268], [-74.0732, 40.617977], [-74.073537, 40.617779], [-74.073855, 40.617561], [-74.074153, 40.617323], [-74.074433, 40.617066], [-74.074694, 40.616788], [-74.074937, 40.61649], [-74.07516, 40.616172], [-74.078919, 40.609835], [-74.079111, 40.609517], [-74.079316, 40.609198], [-74.079537, 40.608877], [-74.079773, 40.608555], [-74.080023, 40.60823], [-74.084087, 40.603117], [-74.084551, 40.602529], [-74.084755, 40.602265], [-74.084948, 40.601995], [-74.085129, 40.601721], [-74.085298, 40.601443], [-74.085456, 40.601161], [-74.085602, 40.600874], [-74.085736, 40.600583], [-74.086673, 40.598098], [-74.086786, 40.59781], [-74.086912, 40.597518], [-74.087051, 40.597221], [-74.087204, 40.596919], [-74.087368, 40.596612], [-74.087682, 40.596087], [-74.087861, 40.595815], [-74.088045, 40.595547], [-74.088237, 40.595284], [-74.088436, 40.595025], [-74.088642, 40.594771], [-74.088855, 40.594521], [-74.089075, 40.594276], [-74.089303, 40.594035], [-74.089538, 40.593799], [-74.08978, 40.593568], [-74.090029, 40.593341], [-74.090285, 40.593119], [-74.090549, 40.592901], [-74.09082, 40.592688], [-74.091101, 40.592478], [-74.09609, 40.588849], [-74.103338, 40.583591], [-74.109704, 40.578965], [-74.110335, 40.578505], [-74.112157, 40.577125], [-74.112423, 40.576923], [-74.112691, 40.576732], [-74.11721, 40.57348], [-74.118668, 40.572428], [-74.119029, 40.572167], [-74.11939, 40.57189], [-74.119751, 40.571599], [-74.12011, 40.571294], [-74.120468, 40.570975], [-74.120825, 40.570642], [-74.12118, 40.570294], [-74.124882, 40.566412], [-74.12512, 40.566178], [-74.125365, 40.565944], [-74.125619, 40.565711], [-74.12632, 40.56511], [-74.134957, 40.557931], [-74.135265, 40.557676], [-74.135519, 40.55747], [-74.135792, 40.557251], [-74.136084, 40.557019], [-74.136907, 40.5564], [-74.137638, 40.555885], [-74.137906, 40.55571], [-74.138184, 40.555537], [-74.138471, 40.555365], [-74.138769, 40.555196], [-74.139078, 40.555028], [-74.139396, 40.554862], [-74.139724, 40.554697], [-74.14121, 40.553992], [-74.141506, 40.553855], [-74.141802, 40.553726], [-74.142098, 40.553602], [-74.142394, 40.553484], [-74.14269, 40.553372], [-74.142986, 40.553266], [-74.143281, 40.553166], [-74.143571, 40.553076], [-74.144004, 40.552957], [-74.144301, 40.552886], [-74.144603, 40.552821], [-74.144912, 40.552762], [-74.145226, 40.55271], [-74.145547, 40.552663], [-74.147702, 40.552415], [-74.148094, 40.552364], [-74.148477, 40.552299], [-74.14885, 40.55222], [-74.149214, 40.552126], [-74.149568, 40.552019], [-74.149913, 40.551897], [-74.150248, 40.55176], [-74.151399, 40.551231], [-74.152956, 40.550502], [-74.153402, 40.550286], [-74.153906, 40.550037], [-74.154181, 40.549901], [-74.154471, 40.549756], [-74.154775, 40.549604], [-74.155095, 40.549444], [-74.155429, 40.549276], [-74.155779, 40.5491], [-74.156143, 40.548916], [-74.156522, 40.548724], [-74.156917, 40.548524], [-74.157326, 40.548317], [-74.157749, 40.5481], [-74.162046, 40.545924], [-74.16457, 40.544601], [-74.166135, 40.543787], [-74.166546, 40.543583], [-74.166952, 40.543387], [-74.167355, 40.5432], [-74.167754, 40.543023], [-74.168149, 40.542855], [-74.168541, 40.542697], [-74.168929, 40.542547], [-74.169313, 40.542407], [-74.169693, 40.542276], [-74.17007, 40.542155], [-74.170442, 40.542043], [-74.170812, 40.54194], [-74.171177, 40.541846], [-74.171539, 40.541762], [-74.171897, 40.541685], [-74.178217, 40.54046], [-74.179413, 40.540217], [-74.179828, 40.540127], [-74.180209, 40.540043], [-74.180555, 40.539965], [-74.180865, 40.539892], [-74.181264, 40.539795], [-74.181583, 40.539711], [-74.18195, 40.539611], [-74.18224, 40.539525], [-74.18254, 40.539431], [-74.182852, 40.539327], [-74.183174, 40.539215], [-74.183508, 40.539094], [-74.183852, 40.538963], [-74.184336, 40.53877], [-74.184641, 40.538643], [-74.18494, 40.538514], [-74.185233, 40.538383], [-74.185521, 40.538251], [-74.185804, 40.538117], [-74.186082, 40.537981], [-74.186355, 40.537844], [-74.186622, 40.537706], [-74.18714, 40.537423], [-74.187637, 40.537135], [-74.188114, 40.536839], [-74.188566, 40.536532], [-74.189009, 40.536213], [-74.189442, 40.535882], [-74.189865, 40.535538], [-74.190278, 40.535182], [-74.190682, 40.534814], [-74.191077, 40.534433], [-74.191794, 40.533674], [-74.198141, 40.526961], [-74.19837, 40.526729], [-74.198608, 40.52651], [-74.198854, 40.526302], [-74.199108, 40.526105], [-74.199371, 40.52592], [-74.199643, 40.525746], [-74.199922, 40.525584], [-74.200264, 40.525405], [-74.200681, 40.525213], [-74.201116, 40.525037], [-74.201568, 40.524877], [-74.202038, 40.524735], [-74.202525, 40.524609], [-74.20303, 40.524499], [-74.203552, 40.524408], [-74.209653, 40.523537], [-74.209972, 40.523491], [-74.210317, 40.523448], [-74.214686, 40.522924], [-74.215149, 40.522871], [-74.215599, 40.522813], [-74.216035, 40.52275], [-74.21646, 40.522683], [-74.216872, 40.522611], [-74.217271, 40.522534], [-74.217658, 40.522452], [-74.217988, 40.522378], [-74.218292, 40.522307], [-74.218626, 40.522223], [-74.218988, 40.522128], [-74.224099, 40.520685], [-74.224415, 40.520604], [-74.224732, 40.520526], [-74.22505, 40.520451], [-74.225368, 40.52038], [-74.225688, 40.520312], [-74.229141, 40.519631], [-74.238373, 40.517812], [-74.239535, 40.517585], [-74.239843, 40.517507], [-74.240145, 40.517416], [-74.240442, 40.517313], [-74.240735, 40.517198], [-74.241023, 40.517071], [-74.242872, 40.516194], [-74.243237, 40.516035], [-74.243523, 40.515928], [-74.243821, 40.515832], [-74.24413, 40.515746], [-74.244786, 40.515604], [-74.245104, 40.515541], [-74.245689, 40.515401], [-74.246451, 40.515198], [-74.24773, 40.514828], [-74.248217, 40.514675], [-74.248693, 40.514507], [-74.249159, 40.514325], [-74.249614, 40.51413], [-74.250059, 40.51392], [-74.250493, 40.513696], [-74.250917, 40.513458], [-74.251961, 40.512764]]}}]}